name,organization_type,priority,segment_name,phone,linkedin_url,address,city,state,postal_code,notes,primary_account_manager,secondary_account_manager
040 KITCHEN INC,unknown,B,,,,,,,,,,
2d Restaurant,unknown,D,,,,,,,,,,
"7 K FARMS, INC.",distributor,D,,,,,,IN,,,,
U. S. FOODSERVICE--CINCINNATI,unknown,,,,,,,,,,,
7 Monks Taproom Grand Rapids,unknown,B,,,,,,,,,Gary,
8 hospitality group,customer,A,Management company,,,,,,,"Hubbard Inn, MASQ joy, district parlay joy, parlay, LINKIN PARK, HVAC, pub, LIQR taco pub Cardoza's pub Café Banda never have I ever",Dale,
86 FOOD SERVICE,unknown,,,,,,Chicago,IL,,,,
90 miles Cuban cafe,unknown,,,,,,,,,,,
A & G FOODSERVICE,distributor,D,,,,,Chicago,IL,,,,
A Little Taste of Texas,customer,,Casual,,,,Glasgow,KY,,email about samples cheese curds,Brent,
A Plus Inc DBA: Noodles Etc,unknown,A,,,,,,,,,,
A&W,customer,B,Chain/Group Member,,,,,,,,Brent,
A.Fusion,customer,D,Ethnic,,,4601 lincoln Highway,Matteson,IL,,Garlic & Sriracha interest. End up purchasing original &jalapeño from PFG,Q,
Abbvie,unknown,,,,,,,,,,Michell,
Acaibowl.LLC,unknown,A,,,,,,,,,Dale,
ACME STEAK & SEAFOOD,distributor,C,,,,,,OH,,,Gary,
AJ's Pizza,customer,,Pizza,,,,,,,,Dale,
AKRON,unknown,D,,,,,,,,,Dale,
AL BAWADI GRILL,unknown,D,,,,,,,,FS call.samples dropped.advance to buyer Brian. Send email.,Brent,
AL PEAKE & SONS INC.,distributor,C,,,,,,OH,,,Gary,
Al Peake amd Sons,distributor,A,,,,,toledo,OH,,Jack Gilbertson buyer- hispanic focus broadliner[wonderjuice and curds,Gary,
Albanos Pasta,customer,B,Ethnic,,,,Valparaiso,IN,,,Gary,
Ale Emporium,customer,B,Gastropub,,,,,,,,Brent,
Alice & Friends2,unknown,D,,,,"2201 S. Michigan Ave., Chicago, IL 60616",Chicago,,,,Bob,
Alice & Friends-Ashland,unknown,D,,,,"1723 N Halsted St, Chicago,",Chicago,,,,Brent,
ALINEA,customer,A,Fine Dining,+1 (312) 867-0110,,"1723 N Halsted St, Chicago,",Chicago,IL,60614,,Michell,
All Ways Catering,customer,D,Caterer,+1 (312) 363-2431,,110 Turner ave,Elk Grove Village,IL,,,Michell,
Allen County Schools Food Service,customer,C,Education,,,,,,,,,
Allen County Schools Food Service,unknown,D,,+1 (224) 735-2450,,,,,,Director Robin Herrington at 270-618-3181 or Allen County Primary Center at 270-618-7200,Bob,
AMARU,unknown,C,,(312) 955-0306,,,,,,,Dale,
Amg,unknown,B,,(312) 337-6070,,,,,,,Bob,
Anchored Consulting,unknown,D,,+1 (773) 327-4900,,,,,,,Brent,
Andre's Avery's,unknown,C,,+1 (708) 205-5341,,,,,,,Bob,
Anelya,unknown,C,,,,,,,,,Dale,
Angie's,unknown,D,,,,,,,,Contact: President | Email: osroc44@yahoo.com,Brent,
Angie's Sports Bar & Pizzeria,customer,D,Gastropub,,,,,,,,Q,Dale
ANMAR FOODS,distributor,C,,,,,Chicago,IL,,,,
ANTHONY MARANO COMPANY,distributor,A,,,,,Chicago,IL,,,,
Apis Hotel,unknown,C,,,,,,,,,Bob,
APOLLO FOODS,distributor,C,,,,,,MI,,,Gary,
Apolonia,customer,B,Fine Dining,+1 (312) 363-2431,,"2201 S. Michigan Ave., Chicago, IL 60616",Chicago,IL,60616,,Michell,
aramark,unknown,D,,,,,,,,,Bob,
Arami,unknown,C,,,,,,,,Contact: Chef Manager Tinaglia,Bob,
Arch City Tavern,customer,B,Gastropub,,,,,,,,Brent,
Arlington Tap House,customer,A,Gastropub,+1 (224) 735-2450,,1204 W Rand Rd,Arlington Heights,IL,60004,Contact: Michael campenil - Greco | Phone: +1 (224) 735-2450,Michell,
Aromatix Catering,unknown,D,,,,,,,,,Q,
Around The Clock,unknown,D,,,,,,,,,Brent,
Arthur Treachers,customer,B,Chain/Group Member,,,,,,,,Dale,
ARTISAN SPECIALTY FOODS,distributor,A,,,,,,IL,,,,
ARUNS THAI,unknown,C,,,,,,,,,Michell,
Asador Bastian,customer,C,Fine Dining,,,,,,,,Michell,
Ashland University,customer,A,College & Universites,,,,,OH,,Nathan Schegerikmis NH Rep Nick Forester is GFS rep,Gary,
Astor Club,customer,A,Fine Dining,,,24 E. Goethe St,Chicago,IL,60610,Testa Kristen lead for VAF; Chef Trevor/Adam Butler,Dale,
At the Office Bar& Grill,customer,,Gastropub,,,4901 cal sag rd,Crestwood,IL,60445,"Sue or Tim are the owner
Contact: Sue and Tim | Email: Newt3013@yahoo.com | Phone: 708-388-5520",Q,Dale
Atelier,customer,B,Fine Dining,,,,,,,,Gary,
ATLANTIC FOOD DIST.,distributor,A,,,,,,OH,,,Gary,
Atlantic Food Distributors,distributor,A,,,,,,OH,,,Brent,Mike
ATLANTIC FOODS CORP.,distributor,A,,,,,,OH,,,Gary,
ATLAS WHOLESALE,distributor,A,,,,,,MI,,,Gary,
Au Cheval,customer,A,Chain/Group Member,,,800 W Randolph St,Chicago,IL,,,Dale,
Austin's Wood Fire Grille,unknown,C,,,,,,,,,Brent,
AVANTI FOODS,distributor,A,,,,,WALNUT,IL,,,,
AVEC,unknown,D,,,,,,,,,Bob,
Avgo (Theo's RG),customer,C,Casual,,,,,,,,Dale,
Avli,customer,,Fine Dining,,,,Chicago',,,Follow up on VAH and Frties,Dale,
Avli Restaurants,unknown,D,,,,,,,,,Bob,
Azul Marisol's 7 Muelle,unknown,D,,,,,,,,,Bob,
B & B PRODUCE,distributor,A,,,,,LOCKPORT,IL,,,,
B AND B FOODS,distributor,A,,,,,,IN,,,,
B N B CREATIONS,unknown,D,,,,,,,,,Brent,
B.E.S INC.,distributor,A,,,,,,IN,,,,
Back Yard Burgers,customer,A,Casual,,,,,,,,Brent,
BADGER MURPHY F.S.,distributor,A,,,,,Chicago,IL,,,,
Bailey's bar and Grill,unknown,C,,,,,,,,,Bob,
Baker Street,customer,A,Chain/Group Member,,,,Fort wayne,IN,,,Brent,
Baldwin Wallace,customer,,College & Universites,,,,,,,,Gary,
Baldwin Wallace University,customer,A,College & Universites,,,,cleveland,,,,Gary,Gary
Ball State U,customer,C,College & Universites,,,,,,,,Gary,Dale
Ballyhoo Hospitality,customer,A,Management company,312-577-4004,,908 North Halsted St.,Chicago,IL,60642,"Gemini, coda Del Velte, old Pueblo, Sophia, Pomeroy, pizza by Sal, Buck Russells, Danucci's, Gemini, petite Pomeroy",Dale,
Bally's Casino and Hotel,unknown,C,,888 822-2559,,600 N. Wabash Ave.,Chicago,IL,60611,"They want to support diverse vendors. Sue to set up a meeting.
Contact: VP Community Engagement",Sue,Dale
Bally's Casino and Hotel TAP HOUSE RESTAURANT AND BAR,unknown,C,,,,,,,,DOES NOT LIKT THE OVERBREADING OGF THE SYSCO IMPERIAL BRAND CHEESE CURD LOOKING TO SWITCH,Michell,
Ballys Casino Cavanugh's,unknown,D,,,,,,,,,Bob,
Ballys Casino Evansville,customer,B,Entertainment/Casinos/Theatres,,,,,,,,Brent,
Bangers and Lace,customer,A,Chain/Group Member,,,1670 W Division St,Chicago,IL,60622,,Michell,
Banyan Ko,unknown,C,,,,,,,,,Dale,
BAR MAR,unknown,C,,,,,,,,,Dale,
Bare bones,unknown,C,,,,,,,,,Dale,
Barefoot Republic Camp,customer,,Hospitality,,,,Fountain Run,KY,,intro,brent,
Barleys Brewing Company Ale House #1,customer,B,Gastropub,,,,,,,,Brent,
Barrio,customer,A,Ethnic,,,65 W Kinzie St,Chicago,IL,60654,Vegetarian/ Vegan options,Michell,
Bastion,unknown,C,,,,,,,,,Brent,
Bastista's Pizza,unknown,D,,,,,,,,,Dale,
BATTAGLIA DIST. CORP. INC,distributor,A,,,,,Chicago,IL,,,,
Batter & Berries,unknown,D,,,,,,,,Contact: David Tsirekas Craig Richardson | Email: craigbnb@gmail.com,Bob,
Bavarian Inn/cheese trap,customer,A,Gastropub,,,,frankenmuth,MI,,"monica claimed cudtown customer. I cisited in Feb -left sample kit,/monica sent dill sample.",Gary,
Bavette's Bar and Steakhouse,customer,A,Chain/Group Member,+1 (312) 624-8154,,218 W Kinzie St,Chicago,IL,60654,Actually advertises steak frites! A vegas spot too!,Michell,
Baxter's North America,unknown,D,,,,,,,,,Bob,
BAZAAR,unknown,C,,,,,,,,,Michell,
Bear and the Butcher,customer,A,Fine Dining,(312) 955-0306,,2721 N Halsted St,Chicago,IL,,,Q,
Beard and Belly,customer,B,Gastropub,,,,,,,,Dale,
Beatnik on the River,customer,A,Fine Dining,,,,,,,,Dale,
BEAVER WHOLESALE MEATS,distributor,A,,,,,,OH,,,Gary,
beer exchange,customer,A,Gastropub,,,,,MI,,,Gary,
Beggars Pizza,customer,A,Chain/Group Member,,,,,,,,Dale,
Bella's Pizza,customer,,Pizza,,,,Saugatuck,MI,,erun rogers plant based leads gfs,Dale,
Bellen Container Corp. dba Packaging By Design,unknown,D,,,,,,,,,Gary,
benny dicartas,customer,A,Gastropub,,,,,MI,,,Gary,
Best Intentions,unknown,C,,,,,,,,,Gary,
Lucrezia,customer,A,Fine Dining,,,,chesterton,IN,,VAF ANNASEA,Gary,
INDUSTRIAL REVOLUTION,customer,A,Gastropub,,,,VALPRAISO,IN,,VAF ANNASEA,Gary,
Beverly CC,customer,A,Country Clubs/Golf/Health Fitness,,,,Chicago,IL,60652,GFS ROSEMONT F/U 87th street,Gary,
Bian,customer,B,Gastropub,,,,,,,,Dale,
BIBIBOP Asian grill,customer,A,Chain/Group Member,,,,Columbus,OH,,Lead from bb. Brent and I will research,Brent,
Big Boy,customer,B,Chain/Group Member,,,,,,,,Bob,
Big City Tap,unknown,D,,,,,,,,,Brent,
Big Eds BBQ,unknown,A,,,,,,,,,,
Big Ed's BBQ,customer,,Casual,8474735333,,651 Lakehurst Rd,Waukegan,IL,60085,,Michell,
Big jones,unknown,C,,,,,,,,,Bob,
Big Red Oven,unknown,D,,,,,,,,,Bob,
Big Woods,customer,A,Chain/Group Member,,,,,,,,Brent,
BINK'S WINES & BEVERAGES,distributor,A,,,,,,MI,,,Gary,
Bistro Coco,customer,,Fine Dining,,,250n Warren St,Dayton,OH,45402,Shipped Chef Zac a sample box of Annasea Tuna and salmon,Brent,Dale
windy cuty grill,customer,A,Chain/Group Member,,,,crown point,IN,,steve Coppolillos -Rosebud-Windy City,Gary,
Bizarre meat by Jose Andres,customer,A,Fine Dining,,,"120 N. Wacker Drive, Chicago, Illinois",Chicago,IL,60606,,Michell,
Bl Development Group,unknown,,,,,,,,,,Bob,
Blackwing Organic Meats,unknown,D,,,,,,,,,Dale,
blondies,customer,A,Vegan/ Vegetarian,,,,Flint,MI,,meeting-awaiting assigned sales rep names,Gary,
Bloom & Associates,unknown,D,,,,,,,,,Bob,
Bloom plant based,unknown,C,,,,,,,,,Michell,
Blue Chip Casino,customer,C,Entertainment/Casinos/Theatres,,,,,,,,Dale,
Blue Oyster,customer,B,Gastropub,,,,Valparaiso,IN,,Chef Edddie,Gary,
Blue Ridge Hotel partners,unknown,,,,,,,,,,Bob,
Bluebeard,unknown,D,,,,,,,,,Dale,
Bluegrass Hospitality Group,customer,A,Chain/Group Member,,,,,,,,Brent,
Bob Chinn's  Crabhouse,customer,B,Casual,,,,,,,Contact: Seth Minton chef de cuisine,Dale,
Bob Chinn's Crabhouse,customer,,Casual,(847) 520-3633,,393 S Milwaukee Ave,Wheeling,IL,60090,,Michell,
Bobcat Bonnie,unknown,C,,,,,,,,,Gary,
Bobcat Bonnie's,unknown,C,,,,,,,,,,
Boelter,unknown,D,,,,,,,,,,
Boeufhaus,unknown,D,,,,,,,,,,
Boka,customer,A,Chain/Group Member,(312) 337-6070,,1729 N. Halsted Street,Chicago,IL,,Please call on me ..several locations and catering. Tentori doesn't work there. New lead: Tentori works at GT Prime Steakhouse.,Gary,
Boka Restaurant Group/Momotaro,customer,A,Chain/Group Member,,,820 West Lake St.,Chicago,IL,,Please call on me ..several locations and catering. Tentori doesn't work there. New lead: Tentori works at GT Prime Steakhouse.,Q,
Bolingbrook golf club & banquet,customer,,Country Clubs/Golf/Health Fitness,,,,,,,,Michell,
Bon Appetit,customer,A,Management company,,,,,,,Contact: Pastry Chef Schawecker,Dale,
BON Manger Catering and Events,unknown,D,,,,,,,,Contact: Owner Dillon,,
"Boodell & Domanskis, LLC",unknown,D,,,,,,,,,,
Boonies,unknown,C,,,,,,,,,,
"BOSCO FOOD SERVICE, INC.",distributor,A,,,,,,MI,,,Gary,
BOWLING GREEN STATE,customer,B,College & Universites,,,,,,,,Brent,
Brass elk,unknown,C,,,,,,,,,,
Brassica,customer,A,Gastropub,,,,,,,,Gary,
BRGBELLY,customer,B,Casual,,,5739 w. Irving park road,,,,,Bob,
Briar Ridge,customer,A,Country Clubs/Golf/Health Fitness,,,,,,,Contact: Jeff & Mike,Dale,
brick and brine,customer,A,Gastropub,,,,,MI,,,Gary,
BRINDILLE,unknown,D,,,,,,,,,,
Brio Tuscan,customer,A,Fine Dining,,,,,,,,Gary,
Broken Barrel bar,customer,,Gastropub,,,2548 n southport ave,Chicago,IL,60614,Took Frites Street Fries to the chef and loves the fries. Fries too espensive for them.,Q,
Broken barrel bar,customer,B,Gastropub,+1 (773) 327-4900,,2548 N Southport Ave,,,,Contact: Chef. Bryant Anderson | Phone: +1 (773) 327-4900,Dale,
Bronzeville WINERY,customer,A,Gastropub,,,,,,,,Michell,Gary
Brooklyn and The Butcher,unknown,D,,,,,,,,Sister account to The Exchange.,Brent,
BROWN FOOD SERVICE,distributor,A,,,,,,KY,,,Brent,
BuB Cafe,unknown,D,,,,,,,,,Dale,
Bub City,customer,A,Casual,,,43rd N. Clark Street,Chicago,IL,60654,,Michell,
Bubba's 33 (Texas roadhouse little sister),customer,D,Casual,,,,,,,,Bob,
Buckee,customer,B,Travel,,,,,,,,Brent,
Bugsy's,customer,,Casual,,,,,,,,Dale,
Bullpen,customer,C,Gastropub,,,,,,,Sampled curds; purchased Original.,Dale,
Buragtory,customer,,Gastropub,,,,,,,7 units; original,Dale,
BurgerUp,customer,,Gastropub,,,,Cool Springs,TN,,,Brent,
Butcher & The burger,customer,B,Gastropub,,,1021 w. Armitage Ave,Chicago,IL,,,Bob,
Butcher and the bear,customer,B,Fine Dining,+1 (708) 205-5341,,,,,,Contact: Chris and Susie Maloyan -OWNERS | Phone: +1 (708) 205-5341,Brent,
Cafe 53,unknown,D,,,,,,,,,Michell,
Cafe Olympic,unknown,D,,,,,,,,,Michell,
Calling a Chef LLC,unknown,,,,,,,,,,Brent,
Calo Restaurant,customer,A,Italian,,,,Chicago,,,"Presented CCF; Frank ( Chef) like Cafe Classic Pumpkin, Carmel Apple Crunch and Salted Chocolate CC.
Contact: Frank ( Chef) | Phone: (773) 271-7782",Craig,Dale
Cameron Mitchell,customer,A,Chain/Group Member,,,,Columbus,OH,,"Drop off samples from Annasea, Kaufhold and Frites Street",Brent,
Cameron Mitchell restaurant group,customer,A,Chain/Group Member,,,,,,,,Brent,
Cant believe its not meat,unknown,D,,,,,,,,,Michell,
Can't Belive It;s Not Meat,unknown,D,,,,,,,,,Michell,
CANTON HOTEL & RESTSUPCO.,customer,A,Management company,,,,,OH,,,Gary,
Caplinger,customer,A,Caterer,,,,,,,,Gary,
CARAMAGNO FOODS,distributor,A,,,,,,MI,,,Gary,
Caring,unknown,C,,,,,,,,,Brent,
Carlisle,unknown,C,,,,,,,,,Dale,
Carlos & Lupitas Restaurants,unknown,D,,,,,,,,,Q,
Carlos Pancake House,unknown,D,,,,,,,,,Bob,
Carl's jr,customer,A,Chain/Group Member,,,,,,,,Gary,
CARMELA FOODS DISTRIBUTIN,distributor,A,,,,,,MI,,,Gary,
CARSONS RIBS,customer,A,Casual,,,465 E Illinois St,Chicago,IL,60611,,Michell,
Castle Hospitality,customer,A,Chain/Group Member,,,11 East Hubbard St.,Chicago,IL,,,Gary,
CATANESE CLASSIC SEAFOODS,distributor,A,,,,,,OH,,,Gary,
CATCH 35,customer,B,Casual,,,,,,,,Dale,
Catering Out The Box,unknown,D,,,,,,,,,Brent,
CBK,customer,A,Casual,,,,,,,,Michell,
Cellar Bar,unknown,D,,,,,,,,,Bob,
Cellar door,unknown,C,,,,,,,,,Q,
Center Plate Development Co.,unknown,D,,,,,,,,,Q,
Central Kitchen + Bar,unknown,C,,,,,,,,,Gary,
CENTRAL MARKET,unknown,D,,,,,,,,,Dale,
Century,customer,A,Group Purchasing Organization,,,,columbus,,,,Gary,Gary
Chaney's Dairy Farm,customer,C,Casual,,,,,,,,Bob,
Chapel Street Cafe,unknown,D,,,,,,,,Contact: GM Uldrich,Dale,
Charlie Baggs Culinary Innovations,unknown,A,,,,,,,,,Dale,
Charlies,unknown,C,,,,,,,,REP will bring the kit to the chef on their next meeting.,Michell,
Char? 'd Brourbon Kitchen +Bar,customer,,Gastropub,,,,louisville,KY,,pass along a Kaufholds Sample kit Chef,Brent,
Chasers,unknown,D,,,,,,,,left wamples with bartender Lee; gave brief presentation,Q,Dale
Cheer's Food & Drink,unknown,D,,,,,,,,Contact: Nicky P chef Stavo,Dale,
cheers in chestertown,customer,A,Gastropub,,,,,IN,,GFS ROSEMONT F/U,Gary,
Chef Dave Madison,unknown,D,,,,,,,,,Q,
Chef Jose Solis,customer,,Casual,(773) 289-4274,,2714 N Milwaukee Ave,Chicago,IL,60647,Have visited wtice. They have bought TCFB.,Michell,
CHEF SOURCE,distributor,A,,,,,,MI,,,Gary,
Chefs special cocktail,unknown,C,,,,,,,,,Dale,
Chefs Warehouse,distributor,A,,331-213-3364,,,,,,meeting set for 3/26,Dale,
Chef's Warehouse - Chicago,distributor,A,,,,,,,,,Dale,
"CHEFS' WAREHOUSE MIDWEST,",distributor,A,,,,,,OH,,,Gary,
chelsea retirement,customer,A,Healthcare,,,,,MI,,,Gary,
Cherry Creek Golf Course,unknown,D,,,,,,,,,Bob,
Chicago chophouse,customer,A,Fine Dining,,,"60 W. Ontario Street, Chicago, Illinois",Chicago,IL,,,Michell,
Sand Creek CC,customer,A,Country Clubs/Golf/Health Fitness,,,,Chesterton,IN,,now Concert management Co. in FL,Gary,
219 Taproom,customer,B,Gastropub,,,,Chesterton,IN,,JOE OWNER-INSUFFICIENT DEMND FOR VAF,Gary,
Chicago Club,customer,A,Fine Dining,,,,,,,Emailed Steve Testa,Dale,
Chicago Club Makers LLC,unknown,D,,,,,,,,,Bob,
Chicago Cut,customer,B,Fine Dining,,,,,,,,Michell,
Chicago cut steakhouse,customer,B,Fine Dining,,,300 N. La Salle Dr,Chicago,IL,,"Dessert of the day, must ask server. skin on fries.",Q,
Chicago Diner,customer,A,Vegan/ Vegetarian,,,2333 N Milwaukee Ave,Chicago,IL,60647,Will visit with a vegan kit.,Michell,
Chicago Q,customer,B,Casual,,,,,,,,Dale,
Chicago Vegan Foods,customer,D,Vending,,,,,,,,Michell,
Chicago winery,unknown,D,,,,,,,,,Gary,
Chicken Salad Chick,customer,A,Chain/Group Member,,,,,,,,Gary,
Chilean balsam,unknown,C,,,,,,,,,Michell,
Chocolate Shoppe Ice Cream Co,unknown,D,,,,,,,,,Bob,
CHRIST PANOS EGV,distributor,A,,,,,Chicago,IL,,,,
CHRIST PANOS FOODS,distributor,A,,,,,Chicago,IL,,,,
Cira/Boca Group,customer,A,Chain/Group Member,,,,,,,,Michell,
Citizen M,unknown,D,,,,,,,,,Bob,
Clairebook CC,unknown,D,,,,,,,,,Bob,
CLARK RESTAURANT SERVICE,distributor,A,,,,,,KY,,,Brent,
ClarkLindsey,unknown,D,,,,,,,,,Dale,
Classic Cafe,customer,A,Caterer,,,,fort wayne,IN,,"presented RR sauces Tandoori amd Butter chicken on drums and in cubess; left Kurd kit;presented BB hot dogs and land lovers filet
Contact: terry and shannon",Gary,
Clean Eatz,customer,,Meal Prep Service,,,7776 B S Randall Rd,Algonquin,IL,,,Michell,
CLEMS REFRIGERATED FOODS,distributor,A,,,,,,KY,,,Brent,
Club 18 at Mister B's(Evansville and Owensboro,customer,A,Casual,812-492-0075,,,,,,Drop samples to GMs of all locations except BG and Owensboro.  Need to follow up with jared@misterbspizza.com,Brent,
Club Hawthrone Crestwood,customer,B,Entertainment/Casinos/Theatres,605-595-1636,,13148 rivercrest dr,Crestwood,IL,,Met with Rebecca. Loves the Garlic & Jalapeño. Has cheese curds but might replace them bc of flavor(s). 11-12-24,Q,
Cocina Costera Tulum,unknown,D,,,,850 w Fulton Market,Chicago,IL,,,Q,
COCO PAZZO,unknown,C,,,,,,,,,Dale,
Cod di Volpe,unknown,C,,,,,,,,,Bob,
Colasanti's / Milford Markets,unknown,,,,,,,,,,Michell,
Coles public house,unknown,C,,,,,,,,,Bob,
Community Hospitality,customer,,Chain/Group Member,,,,Nashville,,,,brent,
Concept Development Group,unknown,D,,,,,,,,,Bob,
Concordia College Dining Services,unknown,D,,,,,,,,,Gary,
"Continental Canteen - Sterling Heights, MI",unknown,,,,,,,,,,Brent,
Coopershawk,customer,A,Chain/Group Member,,,,,,,,Michell,Dale
Copper Fox,unknown,D,,,,,,,,,Dale,
Coppolillo's,customer,A,Chain/Group Member,,,,crown point,IN,,,Gary,
"CORFU FOODS, INC.",distributor,A,,,,,,IL,,,,
corleones,customer,A,Gastropub,,,,Independence,OH,,Lead from Delmonicos,Gary,
CORNELL NYC,customer,A,College & Universites,,,,,,,NACUFS SHOWCASE EAST AND SOUTH USA,Dale,
Cornerstone Restaurant Group,customer,A,Management company,,,,,,,"Urban Belly, The Table at Crate, Sol Toro, MJ23 Sports Bar Michael Jordan's Steakhouse, Hi-Fi Chicken and Beer, Brassierie 1783",Dale,
"COSGROVE DISTRIBUTORS,INC",distributor,A,,,,,,IL,,,,
Cousin's Pizza Pub,customer,,Pizza,630-980-8181,,966 w lake st,Roselle,IL,,,Dale,
Cracker Barrel,customer,A,Chain/Group Member,,,,,,,,Brent,
Craft & Crew Hospitality,unknown,D,,,,,,,,,,
Craft Burger,customer,,Casual,,,,Chicago,,,,Michell,
Craft'd,customer,,Casual,,,,,,,,Q,
CREATION GARDENS,distributor,A,,,,,,KY,,,Brent,
Creekside Restaurant & Bar,unknown,,,,,,,,,,,
Crescent Hill Craft House,unknown,C,,,,,,,,,,
CRG DINING,customer,A,Chain/Group Member,,,,Indianapolis,IN,,,Gary,
CRISTINA FOODS,distributor,A,,,,,Chicago,IL,,,,
CRITCHFIELD MEATS WHSL.,distributor,A,,,,,,KY,,,Brent,
Crown Republic Gastropub,customer,A,Gastropub,,,,,,,"Contact: Chef owner anthony sitek
Contact: Chef owner anthony sitek",Gary,
Crown restaurant group,customer,A,Chain/Group Member,,,,,,,,Gary,
CRS One Source,distributor,A,,,,,Paducah,KY,,Edgar is Director of Sales,Brent,
Crumb Crusher,unknown,D,,,,,,,,,,
Crushed pizzeria,unknown,D,,,,,,,,,,
Crust Brewing,customer,A,Gastropub,,,,,,,,Dale,Gary
Culinary Misfits,customer,D,Gastropub,,,,crown point,IN,,Chef Erin,Gary,
Cumin bowl,customer,,Ethnic,,,,,,,,,
Curts Cafe,customer,,Casual,(847) 748-8086,,766 2nd St,Higland Park,IL,60035,"Two locations, Highland Park and Evanston",Michell,
Cynergy Bakes,unknown,D,,,,,,,,,,
dabney and company,customer,A,Gastropub,,,,,MI,,,Gary,
Daisies,unknown,C,,,,,,,,,,
Daisies poorboy and Tavern,unknown,C,,,,,,,,,,
DALMARES PRODUCE,distributor,A,,,,,Chicago,IL,,,,
Danny's,unknown,D,,,,,,,,Contact: Nicky P Shannon Tom or George,,
"Dar Baklava, LLC",unknown,D,,,,,,,,,,
D'Asti Deli,unknown,D,,,,1410 irving park rd,bensenville,IL,,Left samples with Manager Meme; garlic prefered,Dale,
Dave & Buster's Rosemont,customer,A,Chain/Group Member,7739871128,,"9870 Berwyn Ave. Des Plaines, Il",,IL,,,Michell,
Dave & Buster's Schaumburg,customer,A,Chain/Group Member,8503450276,,"601 N Martingales Rd Schaumburg, IL",,IL,,,Michell,
Dawg House,customer,B,Fast food,,,,elyria,OH,,W/w Atalntic Distributor Rep JOSH CHAMBERS,Gary,
Dear Margaret,unknown,C,,,,,,,,,,
DEARLY BELOVED,unknown,C,,,,,,,,,,
DELCO FOODS,distributor,A,,,,,,IN,,,,
Delmonico,customer,A,Fine Dining,,,,Independence,OH,,,Gary,Brent
Delwood,unknown,C,,,,,,,,,,
Demera,unknown,C,,,,,,,,,,
DENIRO CHEESE CO.,distributor,A,,,,,,OH,,,Gary,
DePaul University,customer,,College & Universites,,,,,,,,Michell,
DeRosa Corporation,customer,A,Chain/Group Member,,,,,,,,Brent,
Diageo Beer Company,unknown,D,,,,,,,,,,
DILGARD FOODS COMPANY,distributor,A,,,,,,IN,,,,
DINEAMIC HOSPITALITY,customer,A,Management company,,,,,,,"Bar La Rue, La Sierra Prime and Provisions, Lyra, Violi, Sienna Tavern, Bandit, Barrio, Blanks Bar, Builders Building, Dineamic Catering",Dale,
Direct Food Service,distributor,A,,630-350-2171,,204 North Edgewood Dr.,Woodale,IL,60191,Positive response of Annasea. Use as ingredient or as finished pupu,Dale,
Direct Food Services,unknown,,,,,,,,,Contact: Nick De Astis | Email: Ndeastis@direct-foods.com | Phone: 630-350-2171,,
dirty franks,customer,A,Chain/Group Member,,,,,,,,Brent,
DISCOUNT PIZZA SUPPLY,distributor,A,,,,,,IN,,,,
District 6 Restaurant,unknown,,,,,,,,,,,
"DIXON FISHERIES, INC.",distributor,A,,,,,,IL,,,,
DMK Burger Bar,customer,B,Gastropub,,,1410 S. special Olympics Drive,,,,,Michell,
Dog House,customer,B,Fast food,,,,Brunswick,OH,,W/w Atalntic Distributor Rep JOSH CHAMBERS,Gary,
Dog n Suds Drive In,customer,B,Chain/Group Member,,,,,,,,,
Donato's,customer,A,Chain/Group Member,,,,,,,,Brent,
Dorthy Lane Market,customer,,Retail,,,,Dayton,OH,,talkd about poke they get bulk seafood and poke mix from NOH,Brent,
DosBros,unknown,D,,,,,,,,,,
DOT,customer,A,College & Universites,,,,,,,NACUFS SHOWCASE EAST AND SOUTH USA,Dale,
Dots Platform,unknown,D,,,,,,,,,,
DOUBLE B DISTRIBUTORS,distributor,A,,,,,,KY,,,Brent,
Dovetail,unknown,C,,,,,,,,,,
DP Dough,customer,B,Casual,,,,,,,,Michell,
Drake,customer,A,Chain/Group Member,,,,,,,Samples left. Champion is Brian. HQ call. Gfs supplied. Brent to pursue.,Brent,
Drake Oakbrook,customer,A,Hospitality,,,,,,,,Dale,
Drury Lane,customer,A,Entertainment/Casinos/Theatres,,,"100 Drury Lane Oakbrook Terrace, IL",,,,Emailed on Proper Stock CATMAN identification-on 8/19 identified Catman who is Lauren Vanryn. Our timing is excellent as this category is up for review in a month or so and they will likely request samples and a presentation.,Michell,
"Drury Lane Theatre, banquet hall",customer,,Entertainment/Casinos/Theatres,,,Countryside,,,,,Michell,
DTM Distributors,distributor,A,,,,,Bowling Green,KY,,email Virginia to see if we can show samples,Brent,
DUANE S. RAHE INC.,distributor,A,,,,,,OH,,,Gary,
Dublin Hall Irish,unknown,C,,,,,,,,,,
Ducky's,customer,,Entertainment/Casinos/Theatres,,,,Fort Wayne,IN,,,Brent,Gary
Dukes Alehouse,customer,A,Gastropub,,,,,,,They use our SWAP chicken.,Michell,Dale
Dusty,unknown,C,,,,,,,,,,
DUTCH VALLEY SCHLABACH,distributor,A,,,,,,OH,,,Gary,
"E & S SALES, LLC",distributor,A,,,,,,IN,,,,
E.T.C.,customer,B,Gastropub,,,,,,,,Michell,
Earl G. Dumplins,customer,B,Gastropub,,,,,,,,Brent,
East Bank Club,customer,A,Entertainment/Casinos/Theatres,,,500 N Kingsbury St,Chicago,IL,60654,"1/31/25 Tessa is no longer the rep here, she has been promoted to a corporate role. Will try to find the new rep.",Michell,Dale
East End tap,unknown,C,,,,,,,,,,
Eating To Live LLC,unknown,D,,,,,,,,,,
El Ideas,unknown,C,,,,,,,,,,
El Salto,customer,A,Chain/Group Member,,,,,,,,Dale,
ELEGANTE CUISINE,unknown,D,,,,,,,,,,
Eleven City,unknown,C,,,,,,,,,,
Elohi Strategic Advisors,unknown,D,,,,,,,,,,
Elsie,unknown,C,,,,,,,,,,
Empire Burger,unknown,D,,,,,,,,,,
Entourage,unknown,D,,,,,,,,,,
ENzo's Bar,unknown,C,,,,,,,,,,
Epic,unknown,D,,,,,,,,,,
ERB MEAT COMPANY,distributor,A,,,,,Chicago,IL,,,,
ERNST HOTEL SUPPLY CO,distributor,A,,,,,,MI,,,Gary,
Esme,customer,B,Fine Dining,,,2200 N Clark St Suite B,Chicago,IL,,Contact: Jenner Tomaska and wife Katrina Bravo,Q,
Especially,customer,B,Fine Dining,,,,,,,,Q,
Essential Kitchen & Essential Kitchen Cafe,customer,,Meal Prep Service,,,1405 Hunt Club Rd,Gurnee,IL,,,Michell,
"e-tailer, inc",unknown,D,,,,,,,,,,
ETC,customer,B,Fine Dining,,,404 S Wells St,Chicago,IL,,Opens Dec. 5th,Q,
Euclid,distributor,A,,,,,,OH,,,Mike,
Eurest,customer,A,Management company,,,,,,,,Dale,
Eurest Dining,customer,A,Management company,,,,,,,,Dale,
EURO USA,distributor,A,,,,,,OH,,,Gary,
European Imports,customer,A,Group Purchasing Organization,,,,,,,,Gary,
EuroUSA,distributor,A,,,,,,,,,Dale,
Even Odds,unknown,D,,,,,,,,,,
EVER,customer,A,Fine Dining,,,,,,,,Michell,
Evil Chech (brewery& Public house?),customer,B,Gastropub,,,3703 N  Main St,Mishawaka,IN,,,Dale,
Factor75,customer,A,Meal Prep Service,,,,Burr Ridge,IL,,"Chris is Manager at Burr Ridge location. Chris referred me to Director of Procurment, Kate HealyMeal prep chef Pete balodimas buyer Matt Horgan. Chef Kyle VerVynck",Dale,
Fairmont Chicago,customer,A,Fine Dining,,,200 North Columbus Dr,Chicago,IL,60601,Testa Kristen lead for VAF; Chef Elton,Dale,
Falco's Pizza,customer,C,Pizza,630-654-4644,,561 s fontage rd,Burr Ridge,IL,60527,Gave a kaufhold's sample kit to the manager and tried one of the flavors. Need to follow up,Q,
Family Express,customer,A,Chain/Group Member,,,,,,,,Dale,Gary
FAMILY PRODUCE FOOD SERVI,distributor,A,,,,,,IL,,,,
Farmhouse Academy,unknown,D,,,,,,,,,,
Fat Angelo's of Bridgeport,customer,,Gastropub,,,,,,,,Dale,
FatKats Pizzaeria and Restaurant,unknown,D,,,,,,,,Contact: GFS Kathy Lyons,,
Fatmans,unknown,A,,,,,,,,,,
Fatmans,customer,,Casual,8472448300,,36309 Skokie Hwy,Gurnee,IL,60031,,Michell,
Fazoli's,customer,A,Chain/Group Member,,,So many in Indiana,,IN,,,Dale,
Ferrara Candy Company,customer,D,Industrial,,,,,,,"Contact: Key Account Manager, eRetail and Omni",,
FERRIS COFFEE AND NUT CO,distributor,A,,,,,,MI,,,Gary,
Fine Arts Bistro,customer,,Casual,,,,Glasgow,KY,,emailed about samples interest,Brent,
Fira,unknown,C,,,,,,,,,,
Fire Bar+Grill,unknown,D,,,,,,,,,,
FireKeepers Casino Hotel,customer,B,Entertainment/Casinos/Theatres,,,,,,,Emailed on 8/19.Executive Chef Brandon Lester; sous chef Everett morris and buye Megan mead,Gary,
Fireside Grille,unknown,D,,,,,,,,GFS,,
Flik Hospitality,unknown,D,,,,,,,,,,
FOOD & PAPER SUPPLY CO,distributor,A,,,,,Chicago,IL,,,,
FOOD DISTRIBUTORS INC.,distributor,A,,,,,,OH,,,Gary,
Food Export - Midwest,unknown,D,,,,,,,,,,
"Food Technology Magazine, Institute of Food Technologists",unknown,D,,,,,,,,,,
FoodMix,unknown,D,,,,,,,,,,
Foodservice Database Co,unknown,D,,,,,,,,,,
FOP Restaurant,customer,,Casual,,,,,,,,Dale,
Forage Public house,unknown,C,,,,,,,,,,
Forbidden root,unknown,C,,,,,,,,,,
Ford Center Arena Evsnsville,customer,B,Entertainment/Casinos/Theatres,,,,,,,,Brent,
Ford Center Executive Chef,customer,B,Entertainment/Casinos/Theatres,,,,,,,,Brent,
FORTUNE FISH,distributor,A,,,,,Chicago,IL,,,,
Fortune Fish & Gourmet,distributor,A,,,,,,,,,Dale,
Foundry kitchen and bar,unknown,C,,,,,,,,,,
Four Pegs,unknown,D,,,,,,,,,,
Four Seasons Hotel Chicago,customer,A,Fine Dining,,,,,,,,Dale,
FOUR STAR FOODS,distributor,A,,,,,CHICAGO,IL,,,,
FOX SUPPLY,distributor,A,,,,,,OH,,,Gary,
FOX VALLEY FARMS,distributor,A,,,,,,IL,,,,
Franciscan Hospital,customer,A,Healthcare,,,,,,,,Gary,
Frank and Mary's Tavern,unknown,C,,,,,,,,,,
Franklin Room,customer,B,Gastropub,+1 (312) 445-4686,,675 N Franklin st.,Chicago,IL,,Delivered FS samples per Flip'a request,Q,
Freedom Brothers Pizzeria & Alehouse,customer,D,Pizza,,,,,,,,,
Freelance,unknown,D,,,,,,,,,,
FreezPak,unknown,D,,,,,,,,,,
FRESH CREATIONS LLC,unknown,D,,,,,,,,,,
Frisch Big Boy,customer,A,Casual,,,,,,,,Brent,
Froelichs,unknown,,,,,,,,,FS-bought Cottage,,
Front Street social,unknown,C,,,,,,,,,,
Frontera,customer,A,Ethnic,,,,,,,,Michell,
Fuego Tacos,unknown,B,,,,,,,,,,
Fuel Nutrition,customer,,Bar/Lounge,270-799-7784,,3278 Nashville Rd,Bowling Green,KY,42104,Contact: Josh and Katie | Phone: 270-799-7784,Brent,
Fujiyama Steakhouse of Japan,customer,,Ethnic,,,,,,,Contact: Hibachi Chef Senmounnarath,,
FULTON TROIKA,distributor,A,,,,,CHICAGO,IL,,,,
Gabby Goat American Pub and Grill,customer,D,Gastropub,,,,,,,,,
Gaelic Park,unknown,D,,,,,,,,,,
Gage Hospitality Group,customer,A,Management company,312-372-4001,,18 S. Michigan Avenue Ste 1100,Chicago,IL,,"ACANTO, Coda di volpe, dawson, The Gage",Dale,
Gag's Chicken,unknown,C,,,,,,,,,,
GALANT FOOD COMPANY,unknown,D,,,,,,,,,,
Galena Associates Inc.,unknown,D,,,,,,,,,,
Galit,customer,C,Gastropub,,,,,,,,,
Garda's,customer,,Italian,,,,,,,,Dale,
Gather,customer,C,Gastropub,,,,,,,,,
GELARDI PRODUCE,distributor,A,,,,,,MI,,,Gary,
Gelsosomo's Pizzeria,customer,A,Pizza,,,,,,,,Dale,
Gemato's Wood Pit BBQ,customer,,Casual,708-361-4200,,6701 w 11th st,Worth,IL,,"Met Jose (owner) and dropped off samples. Wants table tents. 11-12-24
Contact: Thomas and Mario",Q,
GEORGIA STATE,customer,A,College & Universites,,,,,,,NACUFS SHOWCASE EAST AND SOUTH USA,Dale,
Gerolissimo,customer,A,Pizza,,,,,,,,Dale,
GET FRESH PRODUCE,distributor,A,,,,,,IL,,,,
GFS,distributor,A,,,,,,MI,,,Gary,
GFS-D,distributor,A,,,,,,,,,Dale,
GFS-m,distributor,A,,,,,,,,,Michell,
GFS-q,distributor,A,,,,,,,,,Q,
Ghost Writer,customer,,Gastropub,,,49 1/2 S Main St,Johnstown,OH,43031,Shipped Chef Bradley Baluch a Annasea sample pack,Brent,
Gianni's Cafe,unknown,C,,,,,,,,,,
Giant,unknown,C,,,,,,,,,,
Giant,unknown,C,,,,,,,,,,
Gibson's Rosemont,customer,A,Chain/Group Member,,,"5464 n river road, Rosemont, IL",,,,"14 locations in four states Gibson's bar and steakhouse Hugos, frog bar and Fish House, Lux bar, Cortino restaurant and wine bar Gibson's Italia. The boathouse also manages RL restaurant the polo bar in New York on behalf of Ralph Lauren, RL restaurant, Chi socks, bar, and grill and Hugos, frog bar and chophouse in rivers Casino and sugarhouse casino.",Sue,
gilt bar,customer,A,Fine Dining,,,,,,,,Dale,
Gino's East,customer,A,Chain/Group Member,,,,,,,,Gary,
Gino's Prime - Dyer,customer,B,Fine Dining,,,,,,,,Dale,
Giordano's,customer,A,Pizza,,,,,,,,Dale,
Girl in the goat,customer,A,Fine Dining,,,"809 W Randolph St, Chicago, IL",Chicago,IL,,,Michell,
Girl in the goat1,customer,A,Fine Dining,(773) 360-8755,,"1340 W Fulton St, Chicago, IL 60607",Chicago,IL,,,Michell,
Girl in the goat2,customer,A,Fine Dining,(312) 492-6262,,"2429 N Lincoln Ave, Chicago, IL",Chicago,IL,,,Michell,
GLASS CITY FOOD SERVICE,distributor,A,,,,,Toledo,OH,,,Gary,
Gnome Town,customer,A,Chain/Group Member,,,,Fort wayne,IN,,,Brent,
Go Grocers,unknown,D,,,,,,,,,,
goblin and grocer,customer,A,Caterer,,,,,IL,,GFS ROSEMONT F/U,Gary,
Godess and Grocer,unknown,,,,,,,,,,,
Gold Star,unknown,B,,,,,,,,,Michell,
Golden Boy BBQ,customer,A,Casual,,,551 S York St,Elmhurst,IL,60126,,Michell,
Golf VX,customer,,Entertainment/Casinos/Theatres,,,,,,,,Gary,
Good To Go Food,unknown,D,,,,,,,,,,
Goosefoot,unknown,C,,,,,,,,,,
Gordon Food Service,distributor,A,,,,,,,,"Includes culinary and sales key contacts as well as HQ team
Contact: Derrick J. Haight | Email: derrick.haight@gfs.com | Phone: 616-530-7000",Gary,
GORDON FS/50TH STREET,distributor,A,,,,,,MI,,,Gary,
GORDON FS/50TH STREET(FRO,distributor,A,,,,,,MI,,,Gary,
GORDON FS/BRIGHTON,distributor,A,,,,,,MI,,,Gary,
GORDON FS/CLAY AVE.,distributor,A,,,,,,MI,,,Gary,
GORDON FS/DOCK #7,distributor,A,,,,,,MI,,,Gary,
GORDON FS/EPO,distributor,A,,,,,,MI,,,Gary,
GORDON FS/EPO REFRIG/FROZ,distributor,A,,,,,,MI,,,Gary,
GORDON FS/FED EX ONLY,distributor,A,,,,,,MI,,,Gary,
GORDON FS/GREEN OAK DC,distributor,A,,,,,,MI,,,Gary,
GORDON FS/SHEPHERDSVILLE,distributor,A,,,,,,KY,,,Brent,
GORDON FS/SPRINGFIELD,distributor,A,,,,,,OH,,,Gary,
Goshen brewing,customer,C,Gastropub,,,,,,,,Gary,
gottleib memorial,customer,A,Healthcare,,,,,IL,,GFS ROSEMONT F/U,Gary,
Gourmet Gorilla,customer,,Casual,,,,,,,,Q,
Grand Valley State University,customer,B,College & Universites,,,,,,,,Gary,
Great Harvest,customer,A,Chain/Group Member,,,,crown point,IN,,gluten free opportunity. sent lead to Carol.Await their reply,Gary,
Greco,distributor,A,,,,,,,,,Dale,
Greco PA,distributor,A,,,,,,,,,Dale,
Green Street Smoked Meats (Hogsalt),customer,A,Chain/Group Member,,,,,,,,Dale,
Greenbush,customer,B,Gastropub,,,,,,,FS sampled thru PFG-awaiting,Gary,
Greenleaf Foods,unknown,D,,,,,,,,,,
greenntop tavern,customer,A,Gastropub,,,,,MI,,,Gary,
Greenwood Associates,unknown,D,,,,,,,,,,
Greystone Tavern,customer,C,Gastropub,,,,,,,Chef wants gluten free cheese curds. Ours aren't.,,
Grindstone taphouse,unknown,B,,,,,,,,,,
Guckenheimer,unknown,D,,,,,,,,,,
GUEST SUPPLY/CHICAGO SYSC,distributor,A,,,,,,IL,,,,
GVSU,customer,A,College & Universites,,,,,MI,,,Gary,
Gyros and More,customer,B,Fast food,,,,Lorain,OH,,W/w Atalntic Distributor Rep JOSH CHAMBERS,Gary,
Hacienda Calavera,customer,A,Ethnic,,,5503 W Cermak Rd,Cicero,IL,60804,,Michell,
Half acre,customer,C,Gastropub,,,,,,,,,
Halls Chophouse,customer,,Fine Dining,,,1600 West End Ave #101,Nashville,TN,37203,Shipped Chef Josh a box of Annasea tuna and salmon,Brent,
Hammerheads,customer,C,Gastropub,,,,,,,,,
Harbor Shores,customer,B,Country Clubs/Golf/Health Fitness,,,,,,,FS sampled. Like 3/8-GFS,Gary,45817
Harold's,unknown,B,,,,,,,,,Michell,
Harrison Lake Country Club,customer,B,Chain/Group Member,3128280966,,,,,,,Michell,
Harry Carey (8) Lombard Rosemont River north navy pier mag mile,customer,A,Casual,,,,,,,,Craig,Michell
Harvest Bar and Kitchen,unknown,,,,,,,,,,,
harveys,customer,A,Vegan/ Vegetarian,,,,saginaw,MI,,meeting-awaiting assigned sales rep names,Gary,
harveys on the mall,customer,A,Gastropub,,,,,MI,,,Gary,
Hayah Treats,customer,D,Gastropub,,,,,,,FS reviewed and sampled. GFS,,
Haymarket Brewery,customer,A,Chain/Group Member,312-374-3013,https://www.heislerhospitality.com,2001 w. Grand Ave,Chicago,IL,60612,,Gary,
Heisler Hospitality,unknown,A,,,,,,,,,,
Hello Fresh,customer,A,Meal Prep Service,,,,Aurora,IL,,Initial email to Kate Healy on 1/27,Dale,
Heritage,unknown,C,,,,,,,,,,
Hermosa,unknown,D,,,,,,,,,,
high dive,customer,A,Gastropub,,,,,MI,,,Gary,
High Horizon(KY Horse Park),unknown,,,,,,,,,,,
Hillcrest CC,customer,,Country Clubs/Golf/Health Fitness,,,,,,,,Dale,
HILLCREST FOODSERVICE,distributor,A,,,,,CLEVELAND,OH,,,Gary,
Hilton Oakbrook,customer,A,Hospitality,,,,,,,,Dale,
Hiraya Hospitality Collective,customer,D,Chain/Group Member,,,,,,,,Gary,
HIS hospitality,unknown,A,,,,,,,,,Gary,
HK Banjum Glenview Inc,customer,A,Chain/Group Member,,https://www.hogsalt.com,,,,,"Owns 20 restaurants in four cities with over 1000 employees Chicago location and headquartered, Armitage ale House Astor Hall are Chevelle the steakhouse Sachiko meal doughnut vault guilt bar green Street smoked meats high five Ramen, la René lobster bar monkey bar, Sada coffee small Cheval tivolimyavern SYSCO CONTRACT",Gary,
Hog Wild,customer,A,Group Purchasing Organization,,,,,,,,Dale,Craig
Hogsalt Hospitality Group,unknown,A,,,,,,,,"Contact: Joe Doran culinary Director, Ryan Nilson, senior executive culinary Director DUSTIN trip culinary Director",Gary,
Holy Grale,unknown,C,,,,,,,,,,
Honey 1 BBQ,unknown,D,,,,,,,,,,
Honey Berry,customer,,Chain/Group Member,,,,,,,,Dale,
Honey Jam Cafe,customer,A,Breakfast/Brunch,(708)-354-4880,,"181 Countryside Plaza,",Countryside,IL,60525,As of 1/31/25 we are 7 locations with the Kaufhold's cheese curds.,Michell,
hook fish and chicken,unknown,D,,,,,,,,,,
Hookup LLC,customer,B,Gastropub,,,,,,,,Q,
hopcat,customer,A,Gastropub,,,,,MI,,,Gary,
Hopleaf,customer,B,Gastropub,,,,,,,,Gary,
Horseshoe Casino,customer,A,Chain/Group Member,773-687-8667,,10 West Hubbard St./3651 w. Fullerton,Chicago,IL,,,Dale,
HOSPITALITY SERVICE GROUP,customer,A,Gastropub,,,,,,,,Michell,
HR Clark General Store,customer,,Travel,,,1001 A Dutch Creek Rd,Westmoreland,TN,,Have bought 9 Cases of Dill Pickle Cheese Curds already thru Abdale looking to get the Thru DOT next,Brent,
HT Hackney Indy,distributor,A,,,,,Indianapolis,IN,,email to introduce MFB and lines we carry,Brent,
HT Hackney GR,distributor,A,,,,,Grnd Rapids,MI,,email to introduce MFB and lines we carry,Brent,
HT Hackney(Paducah),distributor,A,,,,,Paducah,KY,,email to introduce MFB and lines we carry,Brent,
Wild Egg,customer,A,Chain/Group Member,,,,louisville,KY,,20 stores,Brent,
Hugo Fog bar,customer,A,Chain/Group Member,,,,,,,,Michell,
Hungry Howies,customer,A,Chain/Group Member,,,,,,,Email chef and will drop off sample box of fries,Dale,
Hurtbourne Country Club (Louisville),customer,B,Travel,,,,,,,,Brent,
Hyatt Lodge in Oakbrook,customer,,Hospitality,,,,,,,,,
Hyatt Regency McCormick Place,unknown,C,,,,,,,,,,
Hyles-Anderson College,customer,A,College & Universites,,,8400 Burr Street,Crown point,IN,46307,,Gary,
I took,unknown,B,,,,"180 N. Field Boulevard, Chicago, Illinois",Chicago,IL,,,Q,
"ILLINI INST. FOODS, INC.",distributor,A,,,,,,IL,,,,
Illinois State University,customer,A,College & Universites,,,,,,,,,
In the Game Hollywood Park,customer,A,Entertainment/Casinos/Theatres,,,501 Cal Sag Road,Crestwood,IL,,Desserts & Curds,Dale,Q
Ina Mae,unknown,B,,,,,,,,Chef David directs us thru Piazza and Harry Greene.,,
INDIANA CONCESSIONS SUPPL,distributor,A,,,,,,IN,,,,
Indianhead Food Distributor,customer,,Education K thru 12,,,,Eau Claire,WI,,,Dale,
Indienne,unknown,D,,,,,,,,,,
Informa Markets/SupplySide/Food & Beverage Insider,unknown,D,,,,,,,,,,
Inner City Entertainment,unknown,D,,,,,,,,Sampling chips-Sysco Chgo,,
Innsbrook,customer,D,Country Clubs/Golf/Health Fitness,,,,,,,,,
Innsbrook CC,customer,B,Country Clubs/Golf/Health Fitness,,,,,,,,Dale,
Inspiration Kitchens,unknown,D,,,,,,,,,,
Instantwhip Foods Inc.,unknown,,,,,,,,,,,
INTERNATIONAL MEAT CO,distributor,A,,,,,CHICAGO,IL,,,,
IRBN,distributor,A,,,,,,IN,,,,
Italia Gardens,customer,A,Chain/Group Member,,,,,,,,Gary,
J. Alexander,customer,A,Chain/Group Member,,,,,,,,Dale,
"J. Mark Enterprises, LLC",customer,B,Gastropub,,,41 E. superior,Chicago,IL,,"Contact: CEO / Owner Crawford
Contact: Corporate Chef Roirdan
Contact: Owner,Ripley",Q,
Jake Melnicks Corner Tap,customer,B,Gastropub,,,,,,,,Dale,
Jay Mark Group,unknown,D,,,,,,,,,,
JB Bailey Investments,unknown,C,,,,,,,,,,
Jesse Oaks,customer,,Bar/Lounge,,,,Gages Lake,IL,,Lead came in from USF Rep Lori Taylor.,Michell,
Jodi's Italian Ice Factory,customer,,Casual,,,,,,,,Dale,
Joe Daniel,unknown,C,,,,,,,,,,
Joe Daniels,customer,,Gastropub,708-765-2155,,12218 s harlem ave,Palos Heights,IL,,Met chef Angel and tried the samples. Likes the Garlic then jalapeno 11-12-24,Q,
JOE FRONTERA & SONS,distributor,A,,,,,,MI,,,Gary,
Joe seafood,customer,B,Fine Dining,,,"60 E. grand Avenue Chicago, Illinois",Chicago,IL,,,Q,
Joe's Seafood Prime Steak and Stone Crab,unknown,B,,,,,,,,,Dale,
JOHNNIES BEEF,unknown,D,,,,,,,,,,
johnnys,customer,A,Gastropub,,,,Independence,OH,,Lead from Delmonicos,Gary,
John's food and wine,unknown,D,,,,,,,,,,
Josephine,customer,,Casual,,,,,,,,,
Joy Yee,unknown,,,,,,,,,,,
Joy Yee Noodle,customer,B,Gastropub,,,,,,,,,
Joys Pizza,customer,B,Fast food,,,,Brunswick,OH,,W/w Atalntic Distributor Rep JOSH CHAMBERS,Gary,
Joyworldmburger,customer,A,Chain/Group Member,,,,,,,,Brent,
JP Graziano,customer,A,Italian,,,901 w randolph st,Chicago,IL,60607,,Michell,
JQM WHOLESALE,distributor,A,,,,,,MI,,,Gary,
JTM Food Group,unknown,C,,,,,,,,,,
Juno,unknown,C,,,,,,,,,,
Just a dash catering,customer,A,Caterer,,,9722 parkway Drive,highland,IN,46322,"angel perry, tiana johnson, nicole ward",Gary,
K. LEFKOFSKY,distributor,A,,,,,,MI,,,Gary,
Kansas State University,unknown,A,,,,,,,,"Contact: ""Missy"" Melissa Schrader | Phone: 785-532-6453",,
Kansas State University,unknown,A,,,,,,,,"Contact: ""Missy"" Melissa Schrader | Phone: 785-532-6453",,
Kasama,unknown,C,,,,,,,,,,
Kasia,unknown,D,,,,,,,,,,
Kathryns place,unknown,D,,,,,,,,,,
Kelber Caterin,unknown,D,,,,,,,,,,
Kelber Catering,unknown,C,,,,,,,,,,
Kelley's Pub,unknown,C,,,,,,,,,,
Kelly's pub,unknown,,,,,,,,,,,
Kettering Health,unknown,D,,,,,,,,,,
Key Food Services Co.,unknown,D,,,,,,,,,,
KIMS UNCLE PIZZA,customer,A,Casual,,,,,,,,Gary,
"KING KOLD, INC.",distributor,A,,,,,ENGLEWOOD,OH,,,Gary,
Kings Dining & Entertainment,customer,A,Entertainment/Casinos/Theatres,,,,,,,,,
Kings Fish & Chicken - Mattesson,customer,B,Casual,,,"400 N. Wells Street, Chicago, Illinois",Chicago,IL,,,Q,
Kings Pizza of Rosebud,customer,,Pizza,,,,,,,,Dale,
Kinzie Chophouse,customer,,Fine Dining,,,,,,,,Michell,
Kit Kat Lounge,customer,,Bar/Lounge,,,,Chicago,IL,,,Michell,
KL Trading,unknown,D,,,,,,,,,,
Kraft Heinz Company,customer,A,Chain/Group Member,773-604-8769/312-666-9090,,2423 N. Milwaukee,Chicago,IL,,Sent email to Nick asking for path to present,Sue,
Kuma's Korner,customer,A,Gastropub,,,2900 w belmont ave,Chicago,IL,,,Gary,
KUNA MEAT/E. PEORIA,distributor,A,,,,,,IL,,,,
Kwiktrip,customer,D,Chain/Group Member,,,,,,,,Bob,
La cafe,customer,A,Vegan/ Vegetarian,,,,Flint,MI,,meeting-awaiting assigned sales rep names,Gary,
La Carreta,unknown,D,,,,,,,,,,
La Casa de Isaac & Moishe,customer,,Fine Dining,,,,Highland Park,IL,,Lead from Lauren Scatena.,Michell,
La Catedral,customer,,Breakfast/Brunch,,,2500 S Christiana Ave,Chicago,IL,60623,,Michell,
La Otra Radio Chicago,unknown,B,,,,,,,,,,
La Rabida Childerns Hospital,customer,B,Healthcare,,,,,,,Contact: Foodservice Manager Sampson,Q,
LaCoCo's,unknown,D,,,,,,,,,,
Lady Gregory's,customer,,Gastropub,,,,,,,,Q,Dale
Laine Too,unknown,C,,,,,,,,Contact: Owner rubin,,
LANNINGS FOODS,distributor,A,,,,,MOUNT VERNON,OH,,,Gary,
Lardon,customer,B,Pizza,,,,,,,,Q,
Lark Restaurant & Bar,customer,,Casual,,,,Chicago,IL,,,Michell,
LaRosa,customer,A,Chain/Group Member,,,,,,,,Brent,
Lassen's Tap,customer,B,Gastropub,,,,,,,,Gary,
LCacao,customer,B,Fine Dining,+1 314-477-9085,,,,,,,Q,
LE BOUCHON,customer,A,Fine Dining,,,,,,,,Michell,
Le Colonial,customer,A,Fine Dining,,,,,IL,,,Dale,
Leeds public,customer,A,Chain/Group Member,(773) 825-2400,,,,,,SYSCO CONTRACT,Gary,
Legacy Hospitality,customer,A,Management company,,,,,,,,Dale,
Leonas Pizzeria,unknown,D,,,,,,,,,,
Lesaffre,customer,A,Group Purchasing Organization,7738787340,jMatuszewski@lettuce.com,5419 n Sheridan,Chicago,IL,60647,,Gary,
Lesa's Dairy Dip,customer,,Fast food,,,,Bowling Green,KY,,emailed about samples interest,Brent,
LeTOUR,customer,A,Fine Dining,,,,Evanston,,,,Dale,
Lettuce Entertain you,unknown,A,,,,417 N. Ashland Avenue,Chicago,IL,,,Q,
lfg,customer,A,Gastropub,,,,,MI,,,Gary,
Lillie's Q,unknown,D,,,,,,,,,,
Lipari,distributor,A,,,,,detroit,,,,Gary,Gary
LLCC,unknown,C,,,,,,,,,,
Local West,customer,A,Chain/Group Member,,,,,,,,Gary,
Lockeepers,customer,A,Gastropub,,,,Independence,OH,,Lead from Delmonicos,Gary,
Logan's Roadhouse,unknown,A,,,,,,,,,Brent,
Lola's Tacos & Tequila,customer,,Ethnic,8478558741,,170 W Grand Ave #337,Gurnee,IL,60031,,Michell,
Long John Silvers,customer,B,Casual,773-276-7110,,"2657 n kedzie ave, Chicago, IL",Chicago,IL,,,Q,
Longman &Eagle,customer,A,Fine Dining,,,,,,,Contact: Exec chef Brian Motyka,Michell,
LOST LARSON,unknown,C,,,,,,,,Has cheese curds on the menu already. Hoping to switch them to Kaufhold's. .,,
Lost Never Found,unknown,D,,,,,,,,,,
Lot,customer,A,Pizza,,,,,,,,Gary,
Lou Malnati,customer,D,Chain/Group Member,,,,,,,,Craig,
Lowe's O'Hare,customer,A,Hospitality,,,,,,,,Dale,
Lowlands Group,unknown,D,,,,,,,,,,
Loyola Hospital,customer,A,Healthcare,,,,,,,,Q,
Lucchese Italian Restaurant,unknown,C,,,,,,,,,,
Lucellas,unknown,D,,,,,,,,,,
Lucky/s,customer,A,Fine Dining,,,,east Lamsing,MI,,chain of 8 restaurantsts-fine steakhouse,Gary,
LUDWIG FISH AND PRODUCE,distributor,A,,,,,,IN,,,,
LULA CAFE,unknown,D,,,,,,,,,,
Macroman Meals,customer,,Meal Prep Service,502-289-6464,,1812 W Muhammad Ali Blvd,Louisville,KY,40203,,Brent,
Madame Zusus,customer,D,Vegan/ Vegetarian,(847) 926-7359,,1876 1st St,Highland Park,IL,60035,,,
Madison Pub,customer,B,Gastropub,+1 (630) 455-5520,,"7611 S. Madison St., Burr Ridge, IL",,,,,Q,
Madison Pub & Grill,customer,,Casual,,,,,,,,Dale,
Madison's pub and grill,unknown,D,,,,,,,,,,
Madison's Restaurant,unknown,D,,,,,,,,,,
Main Street Cafe,unknown,B,,(312) 988-0687,,"731 W Lake St, Chicago, IL",Chicago,IL,,,Q,
Maki Sushi and Teriyaki,customer,,Food Truck,,,,,KY,,,Brent,
Mako,unknown,C,,,,,,,,,,
mali,customer,A,Gastropub,,,,Saugatuck,MI,,erun rogers plant based leads gfs,Gary,
MALONEY CUNNINGHAM,distributor,A,,,,,CHICAGO,IL,,,,
Mama Delia,customer,B,Fine Dining,+1 (312) 944-8888,,"8 w maple st, Chicago, IL",Chicago,IL,,,Michell,
MANCUSO CHEESE COMPANY,distributor,A,,,,,,IL,,,,
Pavlou Restaurant Group,unknown,A,,,,,,,,,,
Pappas Restaurant Group,unknown,A,,,,,,,,,,
Maple and Ash,customer,A,Gastropub,,,,,,,,Michell,
Maple lake assisted living,unknown,B,,,,,,,,,,
Maple Tree Inn,customer,B,Gastropub,,,,,,,,Gary,
Maplewood,unknown,D,,,,,,,,,,
Marcus Hotels and Resorts,unknown,C,,,,,,,,,,
Mark Burkhalter,distributor,A,,,,,,,,,Brent,
MARK VEND COMPANY,distributor,A,,,,,,IL,,,,
Mark's Tavern,customer,B,Gastropub,,,"2121 s prairie ave, Chicago, IL",Chicago,IL,,Sampled FS frites. Paneling 3/8,Michell,Dale
Marriott Marquis Chicago,unknown,C,,,,,,,,,,
Marshall's Landing,customer,,Fine Dining,(312) 610-8050,,222 W Merchandise Mart Plaza,Chicago,IL,60654,Left samples of Frites Street with the GM Mario for Chef Lupe Gonzalez.,Michell,
"MARTIN PRODUCE, INC",distributor,A,,,,,,IL,,,,
Marz,unknown,D,,,,,,,,,,
MATAJER AL ARABIAH TRADING CO.,unknown,D,,,,,,,,,,
Matc College,unknown,D,,,,,,,,,,
Mather,customer,A,Casual,,,,,,,,Gary,
Matrix Club Naperville,customer,,Country Clubs/Golf/Health Fitness,,,,,,,,Michell,
Matt and Tonys Columbus,customer,,Gastropub,614-914-8484,,340 E Gay St,Columbus,OH,43215,Message  Chef Javier Alvarez on how to get him and his team samples,Brent,
Max and Erma's,customer,B,Chain/Group Member,,,,,,,,Gary,
Maxwell is trading,unknown,D,,,,,,,,,,
MAXWELLS TRADING,unknown,,,,,,,,,,,
MB Restaurant Group LLC,unknown,C,,,,,,,,,,
MCCORMICK FOOD & BEVERAGE,distributor,A,,,,,,IL,,,,
McNulty's Bier Markt,customer,B,Country Clubs/Golf/Health Fitness,,,,,,,,Dale,
"MEATS BY LINZ, INC.",distributor,A,,,,,,IL,,,,
Medinah CC,unknown,B,,,,,,,,,,
Meijer,unknown,C,,,,,,,,Will visit this week. Will bring fries.,,
MELCO DISTRIBUTING,distributor,A,,,,,,MI,,,Gary,
MERCADITO,unknown,,,,,,,,,,,
Mercado,customer,,Casual,,,,Fort Wayne,IN,,,Brent,Gary
mercy medical,customer,A,Healthcare,,,,,IL,,GFS ROSEMONT F/U,Gary,
MERKLEY & SONS PACKING CO,distributor,A,,,,,,IN,,,,
MERRY MILK MAID,distributor,A,,,,,URBANCREST,OH,,,Gary,
Mesh Systems,unknown,D,,,,,,,,,,
Mesker Park Zoo,unknown,D,,,,,,,,"Chef Amy; sysco, usf, gfs, greco; 2 other locations - City & Uptown...same owner; samplesd and Dill was a favorite",,
MESSIAH,customer,A,College & Universites,,,,,,,NACUFS SHOWCASE EAST AND SOUTH USA,Dale,
Metro Grill & Bar,unknown,,,,,,,,,,,
Mexo GR,unknown,D,,,,,,,,,,
Meyer's Castle,unknown,C,,,,,,,,Contact: Venue Management urquiza,,
MFB,unknown,D,,,,,,,,,,
MI TOCAYA,customer,A,Fine Dining,,,505 N. Michigan Avenue,Chicago,IL,60601,,Dale,
Michael Jordans,customer,D,Pizza,,,,,,,"Dropped off a kaufholds kit with the chef, will try with owner.",,
MICHAEL'S FINER MEAT'S,distributor,A,,,,,COLUMBUS,OH,,,Gary,
Michael's Pizza,customer,,Education,,,,,,,Contact: Jesse Rogers Sara Brad,,
Michigan State University,customer,A,College & Universites,,,,,,,Contact: Patrick  Gibson 231.410.8730 jordan | Email: durkinj3@msu.edu,Gary,
MID TOWN DISTRIBUTORS,distributor,A,,,,,,IL,,,,
Schulers,customer,A,Fine Dining,,,,,,,,Gary,
Midtown Athletic Club,customer,A,Country Clubs/Golf/Health Fitness,(773) 796-6523,,2444 N Elston Ave,Chicago,IL,60647,"Lizet Lopez was the rep here, we are unaware of who the rep is now. I would like to show them Frites Street, Verticle Acres and possibly some of our vegan brands.",Michell,
Midway Restaurant Dev,unknown,D,,,,,,,,Met Joe Fitzgerald @ Franklin Room. Expressed alot of interest in kennebec high-end fry. Will follow up by email,,
Midwest Foods,distributor,A,,,,,,,,,Dale,
Midwest Training & Ice Center,unknown,D,,,,,,,,,,
"Milano's Pizza,Subs and Taps",customer,,Gastropub,,,,,KY,,,Brent,
millenium,customer,A,Chain/Group Member,,,,,MI,,,Gary,
Millenium Restaurant Group,customer,A,Chain/Group Member,,,,,MI,,Sent emil on TCFB Holiday Blitz,Gary,
Milwaukee Area Technical College,customer,D,College & Universites,,,,,,,,,
Minneapolis Public Schools,unknown,D,,,,,,,,,,
Mino's Italian,customer,A,Fine Dining,,,,Winnetka,,,,Dale,
Miss mamies seafood and steaks,unknown,C,,,,,,,,,,
Mister B's Pizza and Wings Bowling Green KY,unknown,,,,,,,,,Contact: Shannon Coughlin owner,,
Mister B's Pizza and Wings Murray KY,unknown,,,,,,,,,Contact: Chris McGraw General Manager sales.Mrbsmurray@gmail.com,,
MiTocaya,unknown,,,,,,,,,,,
MMD,unknown,D,,,,,,,,,,
Modern Interiors,customer,B,Pizza,,,,,,,,Gary,
MOFFETT FOOD SERVICE,distributor,A,,,,,,MI,,,Gary,
Monicals Pizza,customer,B,Pizza,,,,,,,,Bob,
MONTEVERDE,customer,A,Fine Dining,,,,,,,,Michell,
Moody Bible Institute,customer,A,College & Universites,800) 356-6639,,820 N La Salle Dr,Chicago,IL,60610,They are GFS supplied and HPS contracted. Executive chef is Fabian.garcia@moody.edu.,Michell,
Moody tongue,unknown,A,,,,,,,,,,
Motor City Soul Food Express,unknown,C,,,,,,,,,,
Mott st,unknown,B,,,,1401 N. Ashland Avenue,Chicago,IL,,,Michell,
Mott Street,unknown,C,,,,,,,,,,
"MSI FOODS, INC.",distributor,A,,,,,,IL,,,,
Mugsy's Hideout Murray,unknown,,,,,,,,,Contact: Jay Baron cell 270-227-8423 muggyshideoutr20052gmail.com,,
Munchies,customer,,Gastropub,,,,,,,,Dale,
Munro Pizzaria,unknown,D,,,,,,,,,,
Mush Foods,unknown,C,,,,,,,,,,
Muze,unknown,,,,,,,,,,,
My Big Fat Shawarma,unknown,D,,,,,,,,,,
Naf Naf Grill,unknown,C,,,,,,,,,,
Nanobrew,unknown,D,,,,,,,,,,
National Restaurant Association,unknown,D,,,,,,,,,,
Nationwide Arena,customer,A,Entertainment/Casinos/Theatres,,,200 W Nationwide Blvd,Columbus,OH,43215,Shipped Chef Sean Barger a box of Annasea Ahi Tuna and Salmon,Brent,
Native Foods,customer,B,Vegan/ Vegetarian,,,,Chicago,IL,,"Dame - Owner; On Ja Lee, wife. Interest in PB cheesecake for VDay
Contact: Owner dia",Dale,
NATURAL DIRECT,distributor,A,,,,,,IL,,,,
Naty's Pizza,customer,,Chain/Group Member,,,3849 w 26th st,Chicago,IL,,,Q,Michell
Nehemiah's,unknown,D,,,,,,,,,,
Nellies,unknown,D,,,,,,,,,,
New Beginnings Restaurant,unknown,D,,,,,,,,,,
Newport Cafe & Go Grocer,customer,C,Retail,,,,,,,Contact: CEO chambers brown,Michell,Q
Next,customer,C,Pizza,,,,,,,,,
Nick's Pizza,unknown,D,,,,,,,,,,
Nicky's Gyro's,customer,C,Fast food,,,,,,,Received free samples of curds for 30th anniversy. Follow up on samples of frites week of 2-17,Dale,
NO Vacancy,unknown,D,,,,,,,,,,
Noble DQ,customer,A,Chain/Group Member,,,,,,,,Gary,
Noble Romans,unknown,C,,,,,,,,,Dale,
Noco Provisions,customer,B,Fine Dining,,,,,,,,Michell,
North Point,customer,,Bar/Lounge,,,,Lake Zurich,IL,,Lead came in from USF Rep Lori Taylor.,Michell,
North pond,customer,A,Chain/Group Member,,,,,,,,Gary,
North Star (Brassica parent?),unknown,D,,,,,,,,,,
NorthAmerican Concessions,unknown,B,,,,,,,,,Michell,
Northern Hasserot,distributor,A,,,,,cleveland,,,,Gary,
Northern IL U,customer,A,College & Universites,+1 (312) 500-6666,,"509 N. wells Street Chicago, IL",Chicago,IL,,,Michell,Dale
The Patio,customer,A,Chain/Group Member,,,,Chicago,,,800k annual 3/8 Simplot 251019 buyer thru Greco,Gary,Dale
Northside Yacht Club,customer,D,Education,,,,,,,,,
NORTHWESTERN,customer,A,College & Universites,,,,,,,,Dale,Michell
Noshville Delicatessen,unknown,,,,,,Nashville,TN,,,,
Not Just Cookies,unknown,A,,,,,Chicago,IL,60651,Wholesale Bakery at 1340 N Homan in Chicago. ordered Wicks,,
Notre Dame,customer,A,College & Universites,,,,south bend,,,,Gary,Gary
Nu Bistro,unknown,D,,,,,,,,,,
NU WAVE,unknown,B,,,,,,,,,Michell,
OBC kitchens,customer,A,Chain/Group Member,,,,,,,,Dale,
Obi Cai Restaurant Group,customer,A,Chain/Group Member,,,,Fort wayne,IN,,,Brent,
OCharley,customer,B,Gastropub,+1 (773) 916-6421,,"4419 W. Montrose Ave., Chicago, IL",Chicago,IL,,,Michell,
Ohio University,unknown,A,,,,,,,,,,
Old Irving brewing Company,customer,A,Entertainment/Casinos/Theatres,,,,,,,,Brent,
Old National  Executive Chef,customer,B,Entertainment/Casinos/Theatres,,,,,,,,Brent,
Old National Catering Operations Manager,customer,B,Entertainment/Casinos/Theatres,,,,,,,,Brent,
Old National Concession and Bar Manager,customer,B,Entertainment/Casinos/Theatres,,,,,,,,Brent,
Old National Director of F&B,customer,B,Entertainment/Casinos/Theatres,,,,,,,,Brent,
Old National Events Plaza Evansville,customer,B,Gastropub,,,,,,,,Brent,
old River tap and social,customer,B,Casual,,,,,,,,Gary,
Olde Stone Country Club,customer,,Country Clubs/Golf/Health Fitness,,,,Bowling Green,KY,,intro,brent,
Olga's Kitchens,unknown,D,,,,,,,,,,
Olivers Bar & Grill,customer,D,Country Clubs/Golf/Health Fitness,,,,,,,"Sampling chips-Sysco Chgo
Contact: George and Tim",,
Oliver's Bar& Grill,customer,,Gastropub,,,6150 w 159th st,Oak Forest,IL,60452,George or Tim is the manager,Q,Dale
Olympia Fields,customer,A,Country Clubs/Golf/Health Fitness,,,,,,,,Gary,
Omakase Yume,unknown,D,,,,,,,,,,
O'MARA FOODS,distributor,A,,,,,,IN,,,,
One Hope United,customer,B,Chain/Group Member,312-496-0012,,622 W. Randolph street UnitC-101,Chicago,IL,,"Avac  big star-dubs not Sysco luncheonette  Publican  quality meats  the publican  the violet hour
Contact: Cook meyer | Email: cmeyer@onehopeunited.org
Contact: Lead Cook snow | Email: msnow@onehopeunited.org",Gary,
One of a Kind Hospitality,customer,A,Management company,,,,,,,,Dale,
ONE OFF HOSPITALITY,customer,A,Management company,,,,,,,Cooking and topping with cheese to show product and leaving him Samples,Dale,
ONLY FRIES FOOD TRUCK BG,unknown,D,,,,,,,,,,
Open Kitchens,customer,A,Chain/Group Member,,,,,,,,Dale,
Original Bagel & Bialy,customer,B,Fine Dining,3128775339,,"661 W. Walnut Street, Chicago",Chicago,IL,,,Michell,
ORIOLE,unknown,C,,,,,,,,,,
ORLANDO GRECO & SON IMPOR,distributor,A,,,,,,IL,,,,
Osteria lang he,customer,D,Education,,,,,,,,,
P & L FOODSERVICE CO,distributor,A,,,,,,MI,,,Gary,
Pancho Food Distibutors,distributor,A,,,,,Tinley Park,IL,,Met with Ken Stieger 1/24,Dale,
PANCHO FOOD PRODUCTS,distributor,A,,,,,,IL,,,,
Panchos Taqueria & Catering,customer,,Ethnic,,,,,,,,Michell,
Papi's Pizza,customer,,Pizza,,,,Fort Wayne,IN,,,Brent,Gary
Pappas,customer,A,Chain/Group Member,,,2501 w. 16th street,Chicago,IL,,"The Hampton social Nisos prime bass mint Costa the Hampton social
Contact: USF Brian Mish",Dale,
Parker restaurant Group,customer,A,Management company,,,,,,,"+1 (312) 846-6158 1017 N Halsted St
Chicago, IL  60642
United States",Dale,
Parker's,customer,,Fine Dining,,,,Downers Grove,,,,Michell,
Parkhurst Dining,customer,A,Group Purchasing Organization,,,,Pittsburgh,PA,,W/w sustainability and sourcing director for over 400 MW accounts served,Gary,Dale
Parlay Bar and Kitchen,customer,B,Entertainment/Casinos/Theatres,,,1100 Dennison Ave,Columbus,OH,43201,Shipped Director of Operations Joe Flynn(Peerless Managment Group) a Annasea sample Pack,Brent,
Parts Town,customer,D,Pizza,,,,,,,,,
Pat's Pizza and Ristorante,unknown,D,,,,,,,,,,
Paulie Gees,unknown,D,,,,,,,,,,
Pavlou Group,customer,A,Chain/Group Member,,,,Valparaiso,IN,,"Chris Pavlou owns Radius, Maple and Bacon, TommyB's, Sandwich City and two more CP locations. Ched Edward at Maple and Chef Louis at Radius",Gary,
Ohio State,customer,A,College & Universites,,,,,OH,,Sent TCFB Holiday promo,Gary,
Peaches' Cafe/UofC,customer,A,College & Universites,,,,,,,,Michell,
Pear Chef,unknown,C,,,,,,,,,,
PECK DISTRIBUTING,distributor,A,,,,,MAPLE HEIGHTS,OH,,,Gary,
PENN STATE,customer,A,College & Universites,,,,,,,NACUFS SHOWCASE EAST AND SOUTH USA,Dale,
Penn Station,unknown,D,,,,,,,,"Buying USF Dill, low usage caused special order status",,
Pepino's,unknown,D,,,,,,,,,,
PepsiCo,customer,,Pizza,773-327-1512,,2207 n clybourn ave,Chicago,IL,,"Contact: Manager, Govt Affairs hurtado",Dale,
Pequod's Pizza,customer,A,Pizza,847-470-9161,,8520 fernald ave,Morton Grove,IL,,,Dale,
PERF FS/BOWLING GREEN,distributor,A,,,,,,KY,,,Brent,
PERF FS/CINCINNATI,distributor,A,,,,,CINCINNATI,OH,,,Gary,
Pescadon,customer,B,Fine Dining,,,,,,,,,
PFG,distributor,A,,,,,,,,,Q,Sue
PFG Louisville,distributor,A,,,,,brea,OH,,will buy Bb dogs from gfs and katie swindrl,Brent,
PFG Reinhart BG House,distributor,A,,,,,Bowling Green,KY,,,Brent,
PFG Somerset KY,distributor,A,,,,,,KY,,,Brent,
PFG=Jordan Gottlieb,unknown,D,,,,,,,,,,
PFS/CHICAGO,distributor,A,,,,,,IL,,,,
PFS/CHICAGO E&S,distributor,A,,,,,,IL,,,,
PFS/ELLENBEE,distributor,A,,,,,FAIRFIELD,OH,,,Gary,
"PFS/OHIO, OH PIZZA PROD.",distributor,A,,,,,MONROE,OH,,,Gary,
PFS/SOMERSET,distributor,A,,,,,,KY,,,Brent,
Piazza,distributor,A,,,,,,,,Sent emil on TCFB Holiday Blitz,Gary,
Picnic Digital Food Court,customer,B,Fast food,,,,,,,,Dale,
PICS PRODUCE INC.,distributor,A,,,,,CINCINNATI,OH,,,Gary,
"Pier 48 Indy, LLC",unknown,B,,,,,,,,,Gary,
Pilot project,unknown,C,,,,,,,,,,
Pine Rest,customer,A,Healthcare,,,,Grand Rapids,MI,,"Sam Butler dropped BB and LL samples off 1/28
Contact: Sam Butler GFS",Gary,
Pinewood Social,customer,A,Chain/Group Member,,,,,,,,Gary,
Gibsons,customer,A,Management company,,,,,IL,,"RL, Hugo,Quartino, Lux Bar, Bazaar MLL, Bar Mar, Boathouse",Colette,
Pinstripes,customer,A,Management company,,,,,,,"Contact: Chefs Cesar, Ryan.d, Pedro.c, Nicole",Michell,Dale
Pita Inn,unknown,D,,,,,,,,,,
Pizza Express,customer,,Pizza,,,1224 Old Gallatin Rd,Scottsville,KY,42164,Reba and Jim owners tried the Bakeable curds looking to get them thru DOT Foods,Brent,
Pizza Friendly Pizza -- 16 On Center,customer,D,Gastropub,,,,,,,Sampled thrunPFG rep-twice the cost-15k #!annually/2) flip sends Brady connect with investor Mike Schatzman,,
Planeterians,unknown,A,,,,,,,,Contact: Sonny Rodriguez * | Phone: 361-739-5573,,
Planks Tavern on the Water,customer,A,Gastropub,,,,,,,Contact: Exec chef Elton Mann and  Brady Cohen GM,Gary,
Plantastic Indy,unknown,D,,,,,,,,,,
Planteneers,customer,B,Gastropub,17735237437,,"2119 s halsted st, Chicago, IL",Chicago,IL,,,Michell,
Pleasant House Pub,unknown,C,,,,,,,,Contact: Chefs owner Art and Chelsea Jackson,,
Plymouth Place,unknown,,,,,820 N La Salle Dr,,,,,,
POINTE DAIRY SERVICE,distributor,A,,,,,,MI,,,Gary,
POLLAK DIST CO INC,distributor,A,,,,,EUCLID,OH,,,Gary,
Pompette,unknown,D,,,,,,,,,,
"POOLE FOODS, INC.",distributor,A,,,,,,IN,,,,
Porkys BBQ & Grill,unknown,,,,,,,,,,,
Porky's BBQ & Grill,unknown,D,,,,,,,,,,
Port Drive In,customer,B,Chain/Group Member,,,2501 w. 16th street,Chicago,IL,,Likes product. Cutting. Craig will follow up. 8/19,Craig,
Portillo's,customer,B,Chain/Group Member,,,"1000 W. Fulton market, Chicago, Illinois",Chicago,IL,,,Q,
Portillo's Hot Dogs,unknown,A,,,,,,,,,Craig,
Porto,customer,B,Fine Dining,,,,,,,,Michell,
Postboy,customer,A,Chain/Group Member,,,1509 Chapel Drive,Chicago,IL,,,Gary,
Potbelly,unknown,A,,,,,,,,Spoke on FS. Will connect us will potential customers,Craig,
PREMIER PRODUCE,distributor,A,,,,,CLEVELAND,OH,,,Gary,
PREMIER PRODUCE/COLUMBUS,distributor,A,,,,,COLUMBUS,OH,,,Gary,
US FOODS-Wixom,distributor,A,,,,,,MI,,emailed Rick-phoned left vm.,Michell,Sue
US FOODS-Detroit,distributor,,,,,,,,,Emailed announcing TCFB Holiday and McCrum representation,,
US FOODS-Cincinnatti,distributor,A,,,,,,OH,,Emailed announcing TCFB Holiday and McCrum representation,Michell,Sue
US FOODS-Nashville,distributor,A,,,,,,TN,,Emailed announcing TCFB Holiday and McCrum representation,Michell,Sue
US FOODS-Chicago Corp,distributor,A,,,,,,IL,,Emailed announcing TCFB Holiday and McCrum representation,Michell,Sue
US FOODS-Chicago Chicago,distributor,A,,,,,,IL,,Emailed announcing TCFB Holiday and McCrum representation,Michell,Sue
US FOODS-Chicago Bensenville,distributor,A,,,,,,IL,,Emailed announcing TCFB Holiday and McCrum representation,Michell,Sue
US FOODS-Chicago Aurora,distributor,A,,,,,,IL,,Emailed announcing TCFB Holiday and McCrum representation,Michell,Sue
US FOODS-Milwaukee,distributor,A,,,,,,IL,,Emailed announcing TCFB Holiday and McCrum representation,Michell,Sue
US FOODS-Baraboo,distributor,A,,,,,,,,Emailed announcing TCFB Holiday and McCrum representation,Michell,Sue
Prepared Foods Magazine,customer,B,Fine Dining,+1 (312) 726-7777,,"222 n lasalle blvd, Chicago, IL",Chicago,IL,,,Michell,
Prima,customer,,Casual,,,,,,,,,
Prime and provisions,unknown,A,,,,,,,,,Michell,
Prime Steak,customer,A,Fine Dining,,,,,,,Dropped off sample kit with bartender of behalf of rep. Very busy when I visited.,Dale,
Principal,customer,A,Fine Dining,,,,,MI,,,Gary,
Progress Bar,unknown,C,,,,,,,,,,
Prosperity Social Club,customer,D,Casual,,,,,,,,,
Provecho,customer,A,Chain/Group Member,312-404-0440,,332 East Illinois St.,Chicago,IL,60611,Contact: USF Brian Mish,Dale,
Proximo,customer,A,Chain/Group Member,,,,Fort wayne,IN,,,Brent,
Psquare Hospitality,customer,A,Education,,,,,,,Ashley passes on VA,,
Public Bar,unknown,D,,,,,,,,"Contact: Chef Andreas Gabby, Lex",,
Pui Tak Center,unknown,D,,,,,,,,,,
Purdue,customer,,College & Universites,,,,,,,,,
PURDUE,customer,A,College & Universites,,,,,,,NACUFS SHOWCASE EAST AND SOUTH USA,Dale,
PURDUE UNIVERSITY NORTHWEST,unknown,D,,,,,,,,,,
Purple Carrot,unknown,C,,,,,,,,,,
Quartino Ristorante,customer,A,Group Purchasing Organization,,,,,,,,,
Quest,customer,A,Group Purchasing Organization,806) 773-8087,,2500 South Highland Avenue,Lombard,IL,60148,"Chef Juan Zuniga is no longer at Quest, he had been our previous MFB champion at Quest. I will now pursue Shelly Robinson, VP of procurement.",Michell,
Quest (Wright State University),customer,A,Management company,,,,Dayton,OH,,email Jason Roller to see what the next steps were to sampling some products,Brent,
Quest Food Management Services,customer,A,Management company,410) 764-0539,,400 Red Brook Blvd #120,Elk `grove,IL,21117,As of 1/31/25 Sue and I found that Chef Juan Zuniga is no longer at Quest. This would mean our communication now has to go thru sheryll.,Michell,
R.D.P. FOODSERVICE,distributor,A,,,,,HILLARD,OH,,,Gary,
R.D.P. FOODSERVICE FROZEN,distributor,A,,,,,COLUMBUS,OH,,,Gary,
Rail House Bar,customer,,Bar/Lounge,,,,Round Lake,IL,,Lead came in from USF Rep Lori Taylor.,Michell,
RAISU,unknown,C,,,,,,,,,,
Ralston's,unknown,D,,,,,,,,,,
RATIONAL USA,customer,B,Country Clubs/Golf/Health Fitness,,,,,,,,,
Ravisloe,customer,B,Country Clubs/Golf/Health Fitness,,,,,,,,Gary,
rawley inn,customer,A,Gastropub,,,,Independence,OH,,Lead from Delmonicos,Gary,
Raydia,distributor,A,,,,,south bend,,,,Gary,Gary
RDV Corp,customer,B,Fine Dining,,,,,,,,Michell,
Recess,customer,B,Fine Dining,,,,,,,Greg Youra USF rep positioning Waffle fry,Michell,
Redamak,customer,A,Chain/Group Member,2698573501/6165507847,Kobrien@redwaterrestaurants.com,,,,,"Wrote to KIM OBRIEN GM ; MET CHEF ANDREW,",Gary,
redwater,customer,A,Chain/Group Member,,,,,MI,,,Gary,
Redwater restaurant GROUP,customer,A,Fine Dining,,,,,,,,Gary,
Renaissance Schaumburg,customer,A,Hospitality,,,,,,,,Dale,
Republica,unknown,D,,,,,,,,,,
Rewards Network,unknown,D,,,,,,,,,,
RHF,unknown,,,,,,,,,,,
RHODE ISLAND SCHOOL,customer,A,College & Universites,,,,,,,NACUFS SHOWCASE EAST AND SOUTH USA,Dale,
RICHWAY,unknown,C,,,,,,,,,,
ridge cc,customer,A,Country Clubs/Golf/Health Fitness,,,,,IL,,GFS ROSEMONT F/U,Gary,
Ridge Country Club,customer,C,Country Clubs/Golf/Health Fitness,,,,,,,,Gary,45817
Ridgemoore Country Club,customer,C,Country Clubs/Golf/Health Fitness,,,,,,,,Gary,
RIGHTWAY FOOD SERVICE,distributor,A,,,,,LIMA,OH,,,Gary,
"RITCHIE'S FOOD DIST., INC",distributor,A,,,,,PIKETON,OH,,,Gary,
River City Drafthouse,unknown,D,,,,,,,,"Left Sample kit, I imformed Greco Jim, follow up next week",,
RIVER FINN LLC.,distributor,A,,,,,,IL,,,,
RJC,customer,,Casual,,,,,,,,Gary,
Robinson `ribs,customer,D,Chain/Group Member,,,,,,,,Dale,
Rob's Meat,unknown,B,,,,,,,,Contact: Rob and abby,Dale,
Roc City Bar and Grill,unknown,C,,,,,,,,,,
Rockmill Tavern,unknown,D,,,,,,,,,,
Rockmill Tavern/bandits,unknown,D,,,,,,,,,,
Rogers Park Restaurant,unknown,C,,,,,,,,,,
ROINS PRODUCE INC,distributor,A,,,,,CHICAGO,IL,,,,
Rolf and Daughters,unknown,D,,,,,,,,,,
Roman Village,unknown,D,,,,,,,,,,
Romeo pizza,customer,,Chain/Group Member,,,,,,,,Gary,
Roots & Vine Produce And Cafe,unknown,B,,,,954 California Ave,Chicago,IL,,Contact: CEO jones,Michell,
Roots Pizza,customer,A,Pizza,(773) 645-4949,,1924 W Chicago Ave,Chicago,IL,60622,Paul Spinale requested we bring his brands here. This will be a cold lead.,Michell,Q
Roots Pizza,customer,B,Pizza,,,,Chicago,IL,,Plant Based cheese focus,Dale,
Rootstock Wine and `beer Bar,customer,B,Chain/Group Member,,,,,,,,Gary,
Rosati's,customer,D,Chain/Group Member,,,,,,,,Michell,Dale
Rose Mary,customer,B,Chain/Group Member,,,,,,,Left FS and VAF with Chef Brian; follow-up needed,Dale,
"Rosebud steakhouse (Munster, IN)",customer,D,Chain/Group Member,,,,,,,,Dale,
ROSELLI WHSL FOODS INC.,distributor,A,,,,,,MI,,,Gary,
Route 66,unknown,C,,,,,,,,Contact: Jim Drewenski alberto,,
Rowley Inn,unknown,B,,Chef John-585.356.8752,,71 E Wacker Dr,Chicago,IL,,,Michell,
Royal Sonesta Downtown/River North,customer,A,Fine Dining,,,"66 W. Kinsey Street, Chicago, Illinois",Chicago,IL,,Contact: Exec Chef John Rudolph,Michell,
RPM STEAK,customer,A,Chain/Group Member,,,,Chicago,IL,,,Dale,
Ruby Tuesday,customer,A,Chain/Group Member,,,,,,,,Brent,
Rumi Grill Inc,unknown,D,,,,,,,,,,
Rush Medical Center,unknown,A,,,,,,,,,Michell,
Russ,customer,A,Chain/Group Member,,,,holland,MI,,Connected with Gm amd GFs rep,Gary,
Rusty Bucket,customer,A,Gastropub,6146211105,,390 W Nationwide Blvd,Columbus,OH,43215,Shipped Chef Anthony MacAdam of Cameron Mitchell (Rusty Bucket),Brent,Gary
Rusty's Lakeside Pub,unknown,D,,,,,,,,,,
Ruth Lake Country Club,unknown,D,,,,,,,,,,
Ryan's Creekhouse,customer,,Casual,,,,,,,,Dale,
S2 City Grill & Daiquiri Bar,unknown,D,,,,,,,,,,
S2 Express Grill,customer,,Entertainment/Casinos/Theatres,630-530-4649,,701 w north ave,Villa Park,IL,,,Dale,
Safari Land,unknown,D,,,,,,,,,,
Salt and Vinegar Lexington KY,unknown,D,,,,,,,,,,
salt of the earth,customer,A,Gastropub,,,,Saugatuck,MI,,erun rogers plant based leads gfs,Gary,
SALT.,customer,D,Chain/Group Member,,,,,,,,,
Salvatores,customer,A,Chain/Group Member,,,,Fort wayne,IN,,8nstore chain,Gary,
SANTISI WHOLESALE FOOD CO,distributor,A,,,,,YOUNGSTOWN,OH,,,Gary,
saugataco,customer,A,Gastropub,,,,Saugatuck,MI,,erun rogers plant based leads gfs,Gary,
Saz's Hospitality Group,unknown,D,,,,,,,,"Follow-up w/Don 8/19
Contact: Taborski, CEC, CCA, PCII brian",,
Schoops,customer,B,Casual,,,,,,,,Dale,
Schwa,unknown,C,,,,,,,,Met with owner Patrick . Loved the garlic and dill. Wants a garlic curd burger.,,
Scratch Kitchen,customer,B,Fine Dining,,,,,,,Contact: Jesse Ayello Patrick obrien,Michell,
SEAFOOD MERCHANTS LTD,distributor,A,,,,,,IL,,,,
SEASONS FOOD SERVICE,distributor,A,,,,,CHICAGO,IL,,,,
Senate,unknown,D,,,,,,,,,,
Seoul Bites,customer,B,Fine Dining,(312) 441-1920,,"123 N Jefferson St, Chicago, IL 60661",Chicago,IL,,Contact: President hassan,Michell,
Sepia,unknown,A,,,,,,,,,,
SFG,unknown,C,,,,,,,,,,
SFS DIST - SKOUFIS FOOD,distributor,A,,,,,CHICAGO,IL,,,,
shakespears,customer,A,Gastropub,,,,,MI,,,Gary,
Shakou,unknown,D,,,,,,,,,,
Shallot's Bistro,customer,,Fine Dining,,,,Skokie,IL,,Lead from Lauren Scatena.,Michell,
Shamrocks (Patchen),unknown,D,,,,,,,,,,
Shamrocks(Brannon Crodding),unknown,C,,,,,,,,,,
SHANGHAI TERRACE,customer,B,Fine Dining,,,,,,,,Michell,
Shaw's crabhouse,unknown,A,,,,,,,,,,
Shedd Aquarium,customer,A,Entertainment/Casinos/Theatres,,,,,,,,Q,45867
Sheraton Grand,unknown,B,,,,,,,,,,
SHERWOOD FOODS-CLEVELAND,distributor,A,,,,,MAPLE HEIGHTS,OH,,,Gary,
SHERWOOD FOODS-DETROIT,distributor,A,,,,,,MI,,,Gary,
Shoreline Brewery,customer,B,Gastropub,,,,,,,,,
shulers,customer,A,Fine Dining,,,,,MI,,,Gary,
SIDARI'S ITALIAN FOODS,distributor,A,,,,,CLEVELAND,OH,,,Gary,
Side Door,unknown,D,,,,,,,,Will visit with cheese curds.,,
Side Lot Brewing,customer,B,Gastropub,+1 (312) 595-1322,,"51 w kinzie st, Chicago, IL",Chicago,IL,,,Michell,
Siena Tavern,customer,B,Fine Dining,773-572-1622,,"1312 S. Wabash Ave., Chicago, IL",Chicago,IL,,,Michell,
Signature bar and restaurant,unknown,B,,,,,,,,Contact: Joe Spretnjak exec chef,,
Silver Harbor Brewery,unknown,B,,,,,,,,,,
Silver Spring House,customer,,Gastropub,,,,Cincinnati,OH,,,Brent,
SIRNA & SONS,distributor,A,,,,,RAVENNA,OH,,,Gary,
Ski Daddy's,customer,,Casual,270-904-2995,,160 Rivern Pl Ave,Bowling Green,KY,42101,,Brent,
Skoogs,customer,B,Fine Dining,,,,,,,,Michell,
SKY,unknown,A,,,,,,,,,,
SKY CLUB,unknown,C,,,,,,,,,,
Slyce,unknown,D,,,,,,,,,,
Slymans Deli,customer,A,Chain/Group Member,,,,Independence,OH,,,Gary,
Smack Dab Chicago,customer,B,Chain/Group Member,,,"192 E. Walton Street, Chicago, Illinois",Chicago,IL,,,Gary,
Small Cheval,customer,A,Chain/Group Member,,,,,,,,Michell,
SMITH FAMILY FOODS,distributor,A,,,,,TIFFIN,OH,,,Gary,
SMITHHISLER MEATS,distributor,A,,,,,MOUNT VERNON,OH,,,Gary,
Smoke Daddy,customer,B,Chain/Group Member,,,3800 N. Pulaski Road,Chicago,IL,,,Michell,
Smoque,customer,A,Chain/Group Member,,,,,,,"3800 N. Pulaski
Chicago, IL 60641
773-545-7427",Dale,
Smyth,unknown,C,,,,,,,,Contact: John and a Karen Shields,,
Sochi,customer,D,Gastropub,,,,,,,Presented garlic curds. They ordered on the spot,,
Social 219,customer,B,Casual,,,,,,,"Cut and won vs Lamb Stealth fry; initially price and avialbility an Issue, now just price. Still working woth Martin and Carlota on this account.",Dale,
Sociale,customer,B,Fine Dining,,,,,,,"Cut and won vs Lamb Stealth fry; initially price and avialbility an Issue, now just price. Still working woth Martin and Carlota on this account.
Contact: Chefs John McLean Martin Murch",Michell,
Sociale1,unknown,D,,,,,,,,,,
SOFO FOODS OF OHIO,distributor,A,,,,,TOLEDO,OH,,,Gary,
Sofo Foods OH,distributor,A,,,,,,,,,Brent,
SoJu BBQ,unknown,C,,,,,,,,,,
Sol de Mexico,unknown,D,,,,,,,,,,
Soul and smoke,unknown,D,,,,,,,,Contact: D'Andre Carter and Heather Bublick,,
Soul Veg City,unknown,D,,,,,,,,,,
Soul Vibez,unknown,D,,,,,,,,,,
Sould VIbez,unknown,D,,,,,,,,,,
Soupicurean,unknown,D,,,,,,,,,,
SOUTH CHICAGO FISH COMPAN,distributor,A,,,,,CHICAGO,IL,,,,
SOUTH HOLLAND PAPER,distributor,A,,,,,CHICAGO,IL,,,,
Spencers Coffee,customer,,Casual,,,,,KY,,WonderJuice,Brent,
SPICELAND INC,distributor,A,,,,,,IL,,,,
Spillway Bar and Grill,customer,,Bar/Lounge,,,,,,,,Brent,
Spillway BG,customer,,Bar/Lounge,270-842-9397,,2195 River St,Bowling Green,KY,42101,,Brent,
Spirit Elephant,customer,A,Vegan/ Vegetarian,,,n Bay Rd,Wilmette,IL,,Apart of a restaurant group with three other concepts.,Michell,
Spoke +Ivy,customer,,Casual,,,,Fort Wayne,IN,,,Brent,Gary
Springhill Suites by Marriott Springfield Southwest,unknown,D,,,,,,,,,,
Square,unknown,D,,,,,,,,,,
Square Roots,unknown,,,,,,,,,,,
Squire Ale House,unknown,D,,,,,,,,,,
Squire On The Square,unknown,B,,,,,,,,,,
St John's Universtiy,unknown,A,,,,,,,,,,
ST LAWRENCE,customer,A,College & Universites,,,,,,,NACUFS SHOWCASE EAST AND SOUTH USA,Dale,
St. Joseph Brewery,customer,D,Gastropub,,,,,,,,,
St. Mary's Hospital,customer,A,Healthcare,,,,,,,,Dale,
Stables Steakhouse,customer,D,Chain/Group Member,,,,,,,Emailed on Proper Stock CATMAN identification-on 8/19 identified Catman who is Lauren Vanryn. Our timing is excellent as this category is up for review in a month or so and they will likely request samples and a presentation.,,
STACKED Pancake House,customer,B,Chain/Group Member,,,,,,,"3/8"" & Cubed
Contact: Owner Christine demacapoulos",Dale,
"STAPLETON'S, INC.",distributor,A,,,,,,MI,,,Gary,
State Line Pizza,unknown,D,,,,,,,,Contact: Jim Drewenski Suzanne Tim,,
Station 21,customer,B,Chain/Group Member,,,,,,,Contact: Brian Mish dave,Dale,
steady eddie,customer,A,Vegan/ Vegetarian,,,,Flint,MI,,meeting-awaiting assigned sales rep names,Gary,
Steak and Shake,customer,A,Chain/Group Member,,,,,,,,Dale,
STEAK AND VINE,customer,B,Fine Dining,,,,,,,,Michell,
Steel Plow Burger Co,unknown,C,,,,,,,,,,
STOKER'S TENDEREX FARMS,distributor,A,,,,,,KY,,,Brent,
studio grille,customer,A,Gastropub,,,,,MI,,,Gary,
SUN VALLEY FOODS CO.,distributor,A,,,,,,MI,,,Gary,
Sunda New Asian,customer,A,Gastropub,,,,,,,Sous Chef recieved; need to follow up,Dale,
SUNY BUFFALO,customer,A,College & Universites,,,,,,,NACUFS SHOWCASE EAST AND SOUTH USA,Dale,
Superdawg Drive-In,customer,B,Chain/Group Member,,,,,,,,Michell,
SuperDawg.,customer,C,Fast food,,,,,,,,Q,
Superior,distributor,A,,,,,,,,,Gary,
SUPERIOR FOODS CO.,distributor,A,,,,,,MI,,,Gary,
Superkhana,unknown,D,,,,,,,,,,
SUPREME LOBSTER AND SEAFO,distributor,A,,,,,Villa Park,IL,60181,Mike Sakshaug is the Retail Store Manager 05/22/2025,Sue,
Surfs Up Franchising Corporation,customer,B,Fine Dining,,,,,,,,Dale,
Sweeney Girl Sweets,unknown,,,,,,,,,,,
Sweet Berry Cafe,customer,,Breakfast/Brunch,,,720 N McLean Blvd,South Elgin,IL,,,Michell,
Syds Fine Foods,unknown,,,,,,,,,,,
SYRACUSE,customer,A,College & Universites,,,,,,,NACUFS SHOWCASE EAST AND SOUTH USA,Dale,
Sysco,distributor,A,,,,,,,,,Sue,
Sysco Chicago,distributor,A,,,,,,,,,Sue,
Sysco GR,distributor,A,,,,,grand rapids,,,Sent emil on TCFB Holiday Blitz,Gary,Gary
Sysco(BG/Nashville),distributor,A,,,,,Nashville,TN,,planning ride alongs with BG Sales rep Bo Ghee,Brent,
SYSCO/CENTRAL IL -VIRTUAL,distributor,A,,,,,,IL,,,Sue,
SYSCO/CENTRAL ILLINOIS,distributor,A,,,,,,IL,,,Sue,
SYSCO/CHICAGO,distributor,A,,,,,,IL,,,Sue,
SYSCO/CHICAGO - VIRTUAL,distributor,A,,,,,,IL,,,Sue,
SYSCO/CINCINNATI,distributor,A,,,,,CINCINNATI,OH,,,Gary,
SYSCO/CLEVELAND,distributor,A,,,,,CLEVELAND,OH,,,Gary,
SYSCO/DETROIT,distributor,A,,,,,,MI,,,Gary,
SYSCO/GRAND RAPIDS,distributor,A,,,,,,MI,,,Gary,
SYSCO/INDIANAPOLIS,distributor,A,,,,,,IN,,,Gary,
SYSCO/LOUISVILLE,distributor,A,,,,,,KY,,,Brent,
Tabor Hills Healthcare Facility,customer,,Healthcare,,,,,,,,Gary,
Tavern on Main,unknown,D,,,,,,,,"Contact: Mike Hemingermiranda, John, it,, Chef Nick",Dale,
Tavvas LLC,unknown,D,,,,,,,,Contact: Owner juju,,
Teibel's,customer,A,Fine Dining,,,2234 N. Western Avenue,Chicago,IL,,Contact: Mike Heminger chef rick,Dale,
Test 12/2,customer,,Pizza,,,,,,,,Dale,
Testa Produce,distributor,A,,,,,,,,,Dale,
texas corner meats,customer,A,Caterer,,,,,MI,,,Gary,
Texas corner Specialty Meats,customer,C,Caterer,,,,,MI,,,Gary,
Texas Corral Restaurants,unknown,C,,,,,,,,,,
The 30 Bird,customer,,Vegan/ Vegetarian,,,,,KY,,Plant based,Brent,
The Barge,customer,A,Chain/Group Member,,,,,,,,,
The Blackwell Inn,customer,,Casual,,,,Columbus,OH,,intro,Brent,
The BUTLER,customer,A,Chain/Group Member,,,,,,,,Dale,
The Caterist,customer,A,Fine Dining,,,3517 N. Spaulding Ave,Chicago,IL,60618,Testa Kristen Lead for VAF; Contact - Rachel & Josh Owens,Dale,
The Cliff Dwellers,unknown,B,,,,,,,,,,
The Country of the North,customer,,Country Clubs/Golf/Health Fitness,,,1 Club N Dr,Xenia,OH,45385,Shipped Chef Chelsea Fisher box of Annasea tuna and salmon,Brent,Dale
The Dearborn,customer,A,Fine Dining,,,,,,,"Contact: Louise, Aaron, Rachel",Dale,
The Draft House,customer,B,Gastropub,,,,,,,,Gary,
The Duplex,customer,A,Casual,,,3137 W Logan Blvd,Chicago,IL,60647,Offers vegan/vegetarian options.,Michell,
The Emily Hotel Chicago,customer,B,Gastropub,,,,,,,,Q,
The Entrance Restaurant,customer,,Bar/Lounge,,,15101 Dixie Hwy,Harvey,IL,60426,Javier is the Chef and Joe is the owner,Q,
The Farmacy,unknown,B,,,,,,,,,,
The Food Institute,unknown,B,,,,,,,,,,
The Harvest Room,customer,B,Breakfast/Brunch,,,,,,,,Dale,
The Hoppy Gnome,customer,A,Chain/Group Member,,,,Fort wayne,IN,,,Brent,
the hub,customer,A,Gastropub,,,,,MI,,,Gary,
The Lighthouse,customer,A,Fine Dining,,,,,,,,Dale,
The Ohio State University,customer,A,College & Universites,,,,,,,NACUFS SHOWCASE EAST AND SOUTH USA,Gary,
The Paperwork Chef,customer,B,Fine Dining,,,,,,,,Dale,
The paramount group,customer,A,Chain/Group Member,773-880-8044,https://theparamountgroupchicago.com,,,,,"Eden, fuel good, cultivate, SYCSCO CONTRACT",Dale,
The Pizzeria,customer,,Pizza,,,,,,,,Dale,
The Point Sports Bar,customer,,Gastropub,,,12713 cal sag rd,Crestwood,IL,60445,Emily is the owner,Q,Dale
The Rackhouse Tavern,unknown,C,,,,,,,,Contact: GFS/Abdale chef Eric,,
The Ramen District,unknown,C,,,,,,,,Contact: USF Brian Mish Chris Pappas,Dale,
The Rose Hotel,unknown,A,,,,,,,,,,
The Royal Group,customer,A,Chain/Group Member,,,,,,,Contact: Account Manager cope | Email: jcope@teamtrg.com,Brent,
The Scrambled,unknown,B,,,,1448 N. wells,Chicago,IL,,,Dale,
The Second City,customer,,Entertainment/Casinos/Theatres,,,,,,,,Dale,
The Table at Crate,customer,A,Casual,,,,,,,,Michell,
The Table At Crate,customer,A,Casual,6305900063,,35 Oakbrook Center,Oak Brook,IL,60523,,Michell,
The Vault Downtown,unknown,C,,,,,,,,,,
The Vig,customer,A,Fine Dining,,,,,,,Part of Vegacy Hoapitality Group,Dale,
The Wealshire,unknown,,,,,,,,,,Q,
Third coasting,customer,A,Chain/Group Member,773-349-8899,https://www.thirdcoasthg.com,,,,,"Treehouse, Chicago, Moses, Cantina, old Crow, smokehouse, tunnel, Chicago, La Luna",Dale,
Three Tarts Bakery and Cafe,customer,B,Gastropub,,,,,,,,,
Tiger Lily Cafe,customer,B,Gastropub,,,"1016 Church Street, Evanston Illinois",,,,,Gary,
Tiger Lily Café (buys from GFS),customer,C,Gastropub,,,,,,,,,
Tillys Tea Room,customer,C,Gastropub,,,,,,,,,
Timothy's,customer,A,Fine Dining,,,,union,MI,,Would like to try FS as LTO and Poke,Gary,
Tin Caps Milb Team Fort Wayne,customer,,Travel,,,,Ft Wayne,IN,,"Drop off samples from Annasea, Kaufhold and Frites Street",Brent,
Toast & Jam,customer,B,Breakfast/Brunch,,,,,,,,Dale,
Toeless Joel's,customer,B,Gastropub,,,,,,,,,
Tonys Tacos,customer,B,Chain/Group Member,,,,,,,,Dale,
Top Dog Pizza Pub,customer,B,Gastropub,,,,,,,,,
Top Shooters,unknown,B,,,,,,,,,Q,
Town Club,customer,B,Gastropub,,,,,,,Contact: PFG dave and sister Cindy,Dale,
Towne & Oak,customer,A,Fine Dining,,,,Winnetka,,,,Dale,
Townee Square Restaurant,customer,B,Gastropub,,,,,,,Contact: Owner Karahalios,Q,
Transitions,customer,B,Gastropub,,,,,,,,Q,
Trinis Tasty Pastries,customer,B,Gastropub,,,,,,,Contact: Chef and Owner Williams,,
trinity health,customer,A,Healthcare,,,,,MI,,,Gary,
TROYER FOODS-NORTH,distributor,A,,,,,,IN,,,,
Tujax tavern,customer,B,Gastropub,,,,,,,,,
Tulane University,unknown,A,,,,,,,,,,
Turano Baking Co.,unknown,B,,,,,,,,,,
U OF RICHMOND,customer,A,College & Universites,,,,,,,NACUFS SHOWCASE EAST AND SOUTH USA,Dale,
U. LYNCHBURG,customer,A,College & Universites,,,,,,,NACUFS SHOWCASE EAST AND SOUTH USA,Dale,
UChicago Dining,customer,A,College & Universites,,,,,,,,Colette,
UHC,customer,B,Casual,,,,,,,,Dale,
Umeteagroup Inc,customer,B,Fine Dining,,,,,,,,,
Uncle Charlie's Meats,distributor,A,,800-688-1967,,406 N Estill Ave,Richmond,KY,40476,,Brent,
Union Ale House,customer,A,Gastropub,,,,,,,,Michell,
Union Club,customer,A,Fine Dining,,,,,,,,Dale,Q
Union sushi and bbq bar,unknown,B,,,,,,,,,,
University Club of Chicago,customer,A,Fine Dining,,,,,,,,Dale,
University of Alabama,unknown,A,,,,,,,,,,
University of Cincinnati,customer,,College & Universites,,,,Cinccinnati,OH,,Met the GFS rep who has account,Brent,
University of Dayton,customer,A,College & Universites,,,,,,,NACUFS SHOWCASE EAST AND SOUTH USA,Brent,
University of Georgia,unknown,A,,,,,,,,,,
University of Georgia,unknown,A,,,,,,,,,,
University of Illinois,unknown,A,,,,,,,,,,
UM,customer,A,College & Universites,,,,,MI,,,Gary,
University of Michigan,unknown,A,,,,,,,,"Contact: Campus Executive Chef Frank Turchan
Contact: Culinary Assistant Director of Catering miller",,
University of Minnesota,unknown,,,,,,,,,,,
University of Notre Dame,customer,A,College & Universites,,,,,,,,Gary,
University of Wisconsin Madison,customer,B,Gastropub,,,,,,,,Dale,
Upper crust,customer,A,Management company,573-874-3033,,2011 corona road suite 203,Columbia,MO,65203,Director of procurement -services fraternities and sororities and camps,Gary,
Upstairs Pub,customer,B,Chain/Group Member,,,,,,,,Dale,
urban transformation,customer,B,Gastropub,,,,,,,,,
US Foods-Fishers,distributor,A,,,,,Fishers,IN,,2 emails unanswered. Will phone week pf 6-16,Gary,Sue
US Foods-Indy,distributor,A,,,,,Fishers,IN,,2 emails unanswered. Will phone week pf 6-16,Gary,Sue
US Foods-Bensenville,distributor,A,,,,,,,,Emailed announcing TCFB Holiday and McCrum representation,Michell,Sue
US Foods,distributor,A,,,,,,,,"Emailed announcing TCFB Holiday and McCrum representation
Contact: Mark David Garritson | Email: mark.garritson@usfoods.com | Phone: 630-915-4479",Michell,Sue
US Foods Direct,distributor,A,,,,,,,,Emailed announcing TCFB Holiday and McCrum representation,Michell,Sue
USF,distributor,A,,,,,45691,,,Emailed announcing TCFB Holiday and McCrum representation,Michell,
UW-Madison,unknown,B,,,,,,,,,Dale,
UW-Stout Dinning Service,customer,B,Gastropub,,,,,,,,Dale,
Valhalla,unknown,,,,,,,,,,,
VALLEY WHOLESALE FOODS,distributor,A,,,,,PORTSMOUTH,OH,,,Gary,
Valparaiso University,unknown,B,,,,,,,,"Contact: USF, Testa, GFS",Dale,
VAN EERDEN,distributor,A,,,,,,MI,,,Gary,
VAN EERDEN DROP SHIP/E&S,distributor,A,,,,,,MI,,,Gary,
VAN TREESE & ASSOCIATES,distributor,A,,,,,,IN,,,,
Vanderbilt University,unknown,A,,,,,,,,,,
Vaughan hospitality,customer,A,Chain/Group Member,(312) 867-7717,https://vaughanhospitality.com,2744 West Roscoe St.,Chicago,IL,,No longer Sysco,Dale,
Vegan Bar,customer,,Casual,,,,,,,,Michell,
Vegan Street,unknown,B,,,,,,,,,Q,
VegNews and VeganStreet.com,unknown,B,,,,,,,,,Q,
Versailles Food Mart,unknown,B,,,,,,,,Contact: GFS/abdale beckley gm,Q,
Vette City Catering(BG Hot Rods Milb),customer,,Caterer,,,,Bowlingn Green,KY,,emailed about samples interest,Brent,
Villa Ballanca,customer,,Italian,,,,,,,,Dale,
Village of Wheeling,unknown,B,,,,,,,,,Q,
Village Squire,unknown,B,,,,"323 E. Wacker Drive, Chicago, Illinois",Chicago,IL,,Contact: Greco bob Kara's,Q,
Vinegar Solutions,unknown,B,,,,,,,,,,
VIRGINIA TECH,customer,A,College & Universites,,,,,,,NACUFS SHOWCASE EAST AND SOUTH USA,Dale,
VIRTUE,customer,A,Chain/Group Member,,,,,,,,Michell,
Vistro Vegan Fare,customer,,Casual,,,,,KY,,"Drop of all plant based samples with owner Melinda (Landlovers, Swap,better balnce,never better) also wonder juice",Brent,
Vito's Pizza,customer,,Pizza,,,,,,,,Dale,
W.R. HACKET INC,distributor,A,,,,,SPRINGFIELD,OH,,,Gary,
WABASH FOODSERVICE,distributor,A,,,,,,IN,,,,
WABASH FOODSERVICE/E&S,distributor,A,,,,,,IN,,,,
WABASH SEAFOOD,distributor,A,,,,,CHICAGO,IL,,,,
Gino's Steakhouse,customer,A,Fine Dining,,,,merrillville,IA,,Chef Mario and Jimmy Owner,Gary,
Walker Bros,customer,A,Breakfast/Brunch,,,153 Green Bay Rd,winnetka,IL,,,Michell,
WALLACE FOODS,distributor,A,,,,,CANTON,OH,,,Gary,
WALTER & SONS INC.,distributor,A,,,,,WAPAKONETA,OH,,,Gary,
Warlord,unknown,B,,,,,,,,"Contact: Chefs Emily Kraszk, John Lipton, Trevor Fleming | Phone: 773-572-1622",Q,
Washington State University,unknown,A,,,,,,,,,,
Washington State University,unknown,A,,,,,,,,,,
Weather Mark Tavern,customer,,Gastropub,,,1503 s michigan ave,Chicago,IL,,Gave a PFG kurd kit,Q,
Weather Tech,unknown,A,,,,,,,,,Michell,
West Suburban Community Pantry,unknown,B,,,,,South Bend,IN,,cheryl Bauer emails to intro BB after LL acceptance,,
western michigan,customer,A,College & Universites,,,,,MI,,,Gary,
Western Michigan University,customer,A,College & Universites,,,,,,,"Gordon
Contact: emily hazel mitchell",Gary,
Westin Lombard,customer,A,Hospitality,,,,,,,,Dale,
WGN,customer,B,Caterer,+1 (312) 733-9555,,"837 w Fulton market, Chicago, IL",Chicago,IL,,,Q,
What Chefs Want,distributor,A,,,,2055 Nelson Miller Parkway,Louisville,KY,40223,,Brent,
WHITE FEATHER FARMS OF OH,distributor,A,,,,,PATASKALA,OH,,,Gary,
White Rhino,customer,,Gastropub,,,,,,,Contact: Brian Mish diane Katie jose,Dale,
Whole Foods,customer,B,Fine Dining,,,,,,,,,
Wicks,customer,A,Gastropub,,,,Saugatuck,MI,,erun rogers plant based leads gfs,Gary,
Wild Goose,customer,B,Casual,,,,,,,,,
Wild Thing Restaurants,customer,B,Ethnic,,,,,,,,,
Willow Oaks Golf Club,customer,,Country Clubs/Golf/Health Fitness,,,,Glasgow,KY,,contacted about samples,Brent,
Wind Creek Casino,customer,A,Entertainment/Casinos/Theatres,,,,,,,,Dale,Q
Windy City Media Group,unknown,B,,,,,,,,,,
Wings Etc.,customer,A,Chain/Group Member,,,,fort wayne,IN,,presented RR sauces Tandoori amd Butter chicken on drums and in cubess; left Kurd kit;presented BB hot dogs and land lovers filet,Gary,
wl social house,customer,A,Gastropub,,,,,MI,,,Gary,
WMU,customer,A,College & Universites,,,,,MI,,,Gary,
WOW Pizzeria,customer,,Casual,,,,,,,Contact: Jesse Ayello Marco,,
Yancey's Gastropub and Brewery,customer,,Gastropub,,,,,,,,Brent,
YARDBIRD GROUP,customer,A,Gastropub,,,,,,,,Michell,
Yogi's Bar,customer,A,Casual,,,,Dublin,OH,,Mike dropping off Curdtown samples Monday,Mike,
YOUNGSTOWN WLSE GROCERY,distributor,A,,,,,,,,,,
yourstruly,customer,A,Gastropub,,,,Independence,OH,,Lead from Delmonicos,Gary,
ZALACK'S FLINT PROVISIONS,distributor,A,,,,,,MI,,,Gary,
Zels Great Roast Beef,customer,B,Gastropub,,,,,,,,Gary,
Zels Great Roast Beef,unknown,B,,,,,,,,,,
Ziggys,customer,A,Gastropub,,,,Amherst,OH,,W/w Atalntic Distributor Rep JOSH CHAMBERS,Gary,
ZOGALO FOODS,customer,,Fine Dining,,,,,,,,Michell,
Finish Line Sports Bar,customer,,Bar/Lounge,,,,Bowling Green,KY,,samples Kaufholds,Brent,
Dougs Motor City,customer,A,Bar/Lounge,,,,Bowling Green,KY,,samples Kaufholds,Brent,
Novo Dolce,customer,A,Gastropub,,,,Bowling Green,,,,Brent,
Uncommon Ground,customer,B,Casual,,,,Chicago,,,"FS; all plant-based, local lines",Dale,
Perilla Steakhouse,customer,,Fine Dining,,,,Chicago,IL,60601,,Michell,
Tamburrino's Pizza,customer,,Casual,,,,Bowling green,KY,42164,Tried the Kaufhold sample pack plus Ranch and Beer Battered,Brent,
Clover's Bar & Grill,customer,,Casual,,,,Oak Forrest,,,TCFB lead. Contact is Dottie. Rep is Chris P.,Dale,
Olympic Star,customer,,Casual,,,,Tinley Park,,,TCFB lead. Contact is Eva Garvis. Chris P is rep,Dale,
Diamond Pancake House,customer,,Casual,,,,Oak Brook,,,TCFB lead. Contact is Jose Carillo. Rep is Chris P,Dale,
Ball Park,customer,,Casual,,,,Chicago,,,TCFB lead. Contact is Rich. Rep is Jim,Dale,
Brooklyn Pizza,customer,,Casual,,,,Chicago,,,TCFB lead. Contact is Tony. Rep is Jim,Dale,
Krave,customer,A,Casual,,,,oak Lawn,,,TCFB lead. Contact is Moe. Rep is Jim.,Dale,
Triano's,customer,,Pizza,,,,Chicago,,,TCFB lead. Contact is Moe. Rep is Jim.,Dale,
Donatos Pizza,customer,A,Pizza,,,,Columbus,OH,,Message Cynthia Ottavio Director of R&D,Brent,
Market Fresh Restaurant Group,customer,A,Chain/Group Member,,,,Mishawaka,IN,,Chef Oscar at Evil Czech dropped Mcrim for Stanz,Gary,
Evil Czech,customer,A,Chain/Group Member,,,,Mishawaka,IN,,Sierra Valdez Director of Ops for Group and Dustin Barret is GM of Evil,Gary,
Corndance,customer,A,Chain/Group Member,,,,Mishawaka,IN,,Sierra Valdez Director of Ops for Group and Dustin Barret is GM of Evil,Gary,
Jesus Latin Grill,customer,A,Chain/Group Member,,,,Mishawaka,IN,,Sierra Valdez Director of Ops for Group and Dustin Barret is GM of Evil,Gary,
Landon's,unknown,B,,,,,,,,,,
Carnegie,customer,A,Chain/Group Member,,,,Mishawaka,IN,,Sierra Valdez Director of Ops for Group and Dustin Barret is GM of Evil,Gary,
Bourbon and Butcher,customer,A,Chain/Group Member,,,,Mishawaka,IN,,Sierra Valdez Director of Ops for Group and Dustin Barret is GM of Evil,Gary,
3 Monkey's,customer,A,Group Purchasing Organization,,,,Crown Point,IN,,Mike Hemiger,Dale,
CASCADE HILLS COUNTRY CLUB  18682E,customer,A,Casual,,,,,MI,,GFS NOVI show leads,Gary,
GARLAND LODGE FOOD AND BEVERAGE,customer,A,Casual,,,,,MI,,GFS NOVI show leads,Gary,
Treetops - Top Of Hill,customer,A,Casual,,,,,MI,,GFS NOVI show leads,Gary,
Mise En Place Culinary Consulting,customer,A,Casual,,,,,MI,,GFS NOVI show leads,Gary,
BROWN JUG,customer,A,Casual,,,,,MI,,GFS NOVI show leads,Gary,
Mad Anthony - Taylor - 371788E,customer,A,Casual,,,,,MI,,GFS NOVI show leads,Gary,
MONROE ST DINER,customer,A,Casual,,,,,MI,,GFS NOVI show leads,Gary,
Double Down Desserts,customer,A,Casual,,,,,MI,,GFS NOVI show leads,Gary,
Crowes Nest Café,customer,A,Casual,,,,,MI,,GFS NOVI show leads,Gary,
NEW HUDSON INN 371779E,customer,A,Casual,,,,,MI,,GFS NOVI show leads,Gary,
Plant Based Coney's,customer,A,Casual,,,,,MI,,GFS NOVI show leads,Gary,
Troy Escape,customer,A,Casual,,,,,MI,,GFS NOVI show leads,Gary,
THE PITA POST,customer,A,Casual,,,,,MI,,GFS NOVI show leads,Gary,
CHURCHILL'S FOOD & SPIRITS,customer,A,Casual,,,,,MI,,GFS NOVI show leads,Gary,
RED BARON (THE),customer,A,Casual,,,,,MI,,GFS NOVI show leads,Gary,
THE SAWMILL GOLF CLUB,customer,A,Casual,,,,,MI,,GFS NOVI show leads,Gary,
SAGINAW CLUB,customer,A,Casual,,,,,MI,,GFS NOVI show leads,Gary,
RIVERWALK GRILL,customer,A,Casual,,,,,MI,,GFS NOVI show leads,Gary,
The Vault Downtown,customer,A,Casual,,,,,MI,,GFS NOVI show leads,Gary,
The Laundry,customer,A,Casual,,,,,MI,,GFS NOVI show leads,Gary,
LOUHELEN BAHA'I SCHOOL,customer,A,Casual,,,,,MI,,GFS NOVI show leads,Gary,
MATADOR'S PIZZA & TAKE OUT,customer,A,Casual,,,,,MI,,GFS NOVI show leads,Gary,
BAY CLIFF HEALTH CAMP,customer,A,Casual,,,,,MI,,GFS NOVI show leads,Gary,
MARIA HEALTH CARE CENTER,customer,A,Casual,,,,,MI,,GFS NOVI show leads,Gary,
FLAT ROCK CARE CENTER,customer,A,Casual,,,,,MI,,GFS NOVI show leads,Gary,
LINCOLN LAKE BAPTIST YOUTH CAMP,customer,A,Casual,,,,,MI,,GFS NOVI show leads,Gary,
Bronson Behavioral Hospital,customer,A,Casual,,,,,MI,,GFS NOVI show leads,Gary,
The Heartlands,customer,A,Casual,,,,,MI,,GFS NOVI show leads,Gary,
HENRY FORD COLLEGE,customer,A,Casual,,,,,MI,,GFS NOVI show leads,Gary,
Telluride Association,customer,A,Casual,,,,,MI,,GFS NOVI show leads,Gary,
COMMUNITY PROGRAMS,customer,A,Casual,,,,,MI,,GFS NOVI show leads,Gary,
Memorial Healthcare - Cafe,customer,A,Casual,,,,,MI,,GFS NOVI show leads,Gary,
MICHIGAN STATE POLICE TRAINING DIVI,customer,A,Casual,,,,,MI,,GFS NOVI show leads,Gary,
MICH MED- UNIV HOSPITAL-DOCK 5- 202,customer,A,Casual,,,,,MI,,GFS NOVI show leads,Gary,
MDINING- TEST KITCHEN 689175,customer,A,Casual,,,,,MI,,GFS NOVI show leads,Gary,
ST PETER LUTHERAN SCHOOL ACCOUNT,customer,A,Casual,,,,,MI,,GFS NOVI show leads,Gary,
MASON COUNTY CENTRAL SCHOOLS,customer,A,Casual,,,,,MI,,GFS NOVI show leads,Gary,
MICHINDOH CONFERENCE CENTER,customer,A,Casual,,,,,MI,,GFS NOVI show leads,Gary,
WASHINGTON TWP SCHOOLS WAREHOUSE,customer,A,Casual,,,,,MI,,GFS NOVI show leads,Gary,
Northville Public Schools,customer,A,Casual,,,,,MI,,GFS NOVI show leads,Gary,
SPECTRUM JUVENILE JUSTICE SERVICES,customer,A,Casual,,,,,MI,,GFS NOVI show leads,Gary,
Tara Mcmurty,customer,,Food Truck,,,,Scottsville,KY,42164,Going to Cater 400 people at a Barbra O'Neil Seminar,Brent,
Pizza Wholesale of Lexington,distributor,A,,,,,Paris,KY,40361,going to contact about bakeable cheese curds,Brent,
The Swing Club,customer,,Food Truck,,,,Scottsville,KY,,Runs a Top Golf style driving range just opened,Brent,
Azzip Pizza,customer,,Pizza,,,,Evansville,IN,,10 unit pizza place in IN and KY,Brent,
Powers Health,customer,,Healthcare,,,,,,,4 unit hospital,Dale,
Rafeal's Sports Bar,customer,,Casual,,,,Glasgow,KY,,,Brent,
Ralphie's Fun Center,customer,,Entertainment/Casinos/Theatres,,,,Glasgow,KY,,,Brent,
Independence Village of Ames,unknown,B,,,,,,,,Gfs rosemont 2025 lead,Michell,
ABBVIE AP30,customer,,Business and Industry,,,,,,,Gfs rosemont 2025 lead,Michell,
ACARATH MONTESSORI,unknown,,,,,,,,,Gfs rosemont 2025 lead,Michell,
Ami-Gos Tacos,unknown,,,,,,,,,Gfs rosemont 2025 lead,Michell,
Angry Octopus,unknown,,,,,,,,,Gfs rosemont 2025 lead,Michell,
APOSTOLIC CHURCH OF GOD,unknown,,,,,,,,,Gfs rosemont 2025 lead,Michell,
ASSEMBLY AMERICAN BAR & CAFE (THE),unknown,,,,,,,,,Gfs rosemont 2025 lead,Michell,
Beverly Country Club,unknown,,,,,,,,,Gfs rosemont 2025 lead,Michell,
Countrytime Kettle Korn McHenry,unknown,,,,,,,,,Gfs rosemont 2025 lead,Michell,
CREME OF THE CROP,unknown,,,,,,,,,Gfs rosemont 2025 lead,Michell,
DR JOHN WARNER HOSPITAL,unknown,,,,,,,,,Gfs rosemont 2025 lead,Michell,
EPIC BURGER-PEARSON ST,unknown,,,,,,,,,Gfs rosemont 2025 lead,Michell,
ESPERANZA SCHOOL,unknown,,,,,,,,,Gfs rosemont 2025 lead,Michell,
GAME ON BAR & GRILL,unknown,,,,,,,,,Gfs rosemont 2025 lead,Michell,
Hampshire Township Park District,unknown,,,,,,,,,Gfs rosemont 2025 lead,Michell,
KIRBY MEDICAL CENTER,unknown,,,,,,,,,Gfs rosemont 2025 lead,Michell,
KIRK'S BBQ,unknown,,,,,,,,,Gfs rosemont 2025 lead,Michell,
KNIGHTS OF COLUMBUS #1282,unknown,,,,,,,,,Gfs rosemont 2025 lead,Michell,
LA RABIDA CHILDRENS HOSPITAL,unknown,,,,,,,,,Gfs rosemont 2025 lead,Michell,
Louies Waffle House,unknown,,,,,,,,,Gfs rosemont 2025 lead,Michell,
MARY'S PLACE,unknown,,,,,,,,,Gfs rosemont 2025 lead,Michell,
NIVRAM BALMORAL NURSING,unknown,,,,,,,,,Gfs rosemont 2025 lead,Michell,
North Island Catering,unknown,,,,,,,,,Gfs rosemont 2025 lead,Michell,
PARAMOUNT THEATRE,unknown,,,,,,,,,Gfs rosemont 2025 lead,Michell,
PEACE MEAL CENTRAL OFFICE,unknown,,,,,,,,,Gfs rosemont 2025 lead,Michell,
POST 18 AMERICAN LEGION,unknown,,,,,,,,,Gfs rosemont 2025 lead,Michell,
Queen of Peace Retirement,unknown,,,,,,,,,Gfs rosemont 2025 lead,Michell,
RUSH U MED-GEN KITCHEN PO589563,unknown,,,,,,,,,Gfs rosemont 2025 lead,Michell,
Sassy Mac Boys,unknown,,,,,,,,,Gfs rosemont 2025 lead,Michell,
Storypoint Of Bolingbrook,unknown,,,,,,,,,Gfs rosemont 2025 lead,Michell,
The Ice Cream Shop,unknown,,,,,,,,,Gfs rosemont 2025 lead,Michell,
The Matrix Room,unknown,,,,,,,,,Gfs rosemont 2025 lead,Michell,
The Pointe at Morris,unknown,,,,,,,,,Gfs rosemont 2025 lead,Michell,
The Shores of Fairmont,unknown,,,,,,,,,Gfs rosemont 2025 lead,Michell,
THS-GOTTLIEB MEMORIAL DIETARY-H0182,unknown,,,,,,,,,Gfs rosemont 2025 lead,Michell,
U OF I- HOUSING FOOD STORES,unknown,,,,,,,,,Gfs rosemont 2025 lead,Michell,
Washington Grade School District 52,unknown,,,,,,,,,Gfs rosemont 2025 lead,Michell,
10Forty Banquets & Catering,unknown,,,,,,,,,Gfs rosemont 2025 lead,Michell,
Area Career Center,unknown,,,,,,,,,Gfs rosemont 2025 lead,Michell,
GOBLIN AND THE GROCER,unknown,,,,,,,,,Gfs rosemont 2025 lead,Michell,
MERRILLVILLE REGIONAL MENTAL HEALTH,unknown,,,,,,,,,Gfs rosemont 2025 lead,Michell,
Notre Dame-110 South Dining Hall,unknown,,,,,,,,,Gfs rosemont 2025 lead,Michell,
State Park Little League,unknown,,,,,,,,,Gfs rosemont 2025 lead,Michell,
Taco Depot Crown Point,unknown,,,,,,,,,Gfs rosemont 2025 lead,Michell,
CLEMENTINE'S SALOON,unknown,,,,,,,,,Gfs rosemont 2025 lead,Michell,
Daydreamer Domes,unknown,,,,,,,,,Gfs rosemont 2025 lead,Michell,
Ludington Pub,unknown,,,,,,,,,Gfs rosemont 2025 lead,Michell,
WUSKOWHAN PLAYERS CLUB,unknown,,,,,,,,,Gfs rosemont 2025 lead,Michell,
AGING AND DISABILITY RESOURCE CENTE,unknown,,,,,,,,,Gfs rosemont 2025 lead,Michell,
BJ'S RESTAURANT,unknown,,,,,,,,,Gfs rosemont 2025 lead,Michell,
Faklandia Brewing,unknown,,,,,,,,,Gfs rosemont 2025 lead,Michell,
FORT ATKINSON FAMILY RESTAURANT,unknown,,,,,,,,,Gfs rosemont 2025 lead,Michell,
HSL West Allis Assisted,unknown,,,,,,,,,Gfs rosemont 2025 lead,Michell,
L G YOUTH CAMP-GATE 2,unknown,,,,,,,,,Gfs rosemont 2025 lead,Michell,
MACS,unknown,,,,,,,,,Gfs rosemont 2025 lead,Michell,
Moxie Coffee Café Catering,unknown,,,,,,,,,Gfs rosemont 2025 lead,Michell,
Timber-Lee Ministries,unknown,,,,,,,,,Gfs rosemont 2025 lead,Michell,
Independence Village of Avon,unknown,,,,,,,,,Gfs rosemont 2025 lead,Michell,
Independence Village of Waukee,unknown,,,,,,,,,Gfs rosemont 2025 lead,Michell,
Jelka Leedle,unknown,,,,,,,,,Gfs rosemont 2025 lead,Michell,
JULIE WENDORF,unknown,,,,,,,,,Gfs rosemont 2025 lead,Michell,
Kelly,unknown,,,,,,,,,Gfs rosemont 2025 lead,Michell,
Kimberly Woods,unknown,,,,,,,,,Gfs rosemont 2025 lead,Michell,
King-Bruwaert House,unknown,,,,,,,,,Gfs rosemont 2025 lead,Michell,
Maija's Families Foods,unknown,,,,,,,,,Gfs rosemont 2025 lead,Michell,
Paulies,unknown,,,,,,,,,Gfs rosemont 2025 lead,Michell,
the woods of Caledonia,unknown,,,,,,,,,Gfs rosemont 2025 lead,Michell,
West Carroll Middle School,unknown,,,,,,,,,,Michell,
The Big Dipper,customer,,Fast food,,,,Owensboro,KY,,SherryAshby is the GM,Brent,
It's J's Good Grub,customer,,Food Truck,,,,Owensboro,KY,,Jay and Antoinette Johnson,Brent,
Michigan State Police Acadamy,customer,A,Military/Government,,,,Lansing,MI,,Angella Jirovec,Gary,
Great Lakes CHR Homes,customer,B,Healthcare,,,,lansing,MI,,Angella Jirovec,Gary,
Culver's,customer,A,Chain/Group Member,,,,,,,Chef Woody Bates key ally,Dale,
MDINING- TEST KITCHEN 689175,unknown,A,,,,,,,,Gfs novi show lead 4/25,Gary,
MDINING- TEST KITCHEN 689175,unknown,A,,,,,,,,Gfs novi show lead 4/25,Gary,
ANDERSON FOODS,unknown,A,,,,,,,,Gfs novi show lead 4/25,Gary,
Battle Alley Brewing Company,unknown,A,,,,,,,,Gfs novi show lead 4/25,Gary,
BAY CLIFF HEALTH CAMP,unknown,A,,,,,,,,Gfs novi show lead 4/25,Gary,
Belva,unknown,A,,,,,,,,Gfs novi show lead 4/25,Gary,
BENS SUPERCENTER,unknown,A,,,,,,,,Gfs novi show lead 4/25,Gary,
Bluebird,unknown,A,,,,,,,,Gfs novi show lead 4/25,Gary,
BOARDWALK (THE),unknown,A,,,,,,,,Gfs novi show lead 4/25,Gary,
Boyne River Inn,unknown,A,,,,,,,,Gfs novi show lead 4/25,Gary,
BSA-COLE CANOE,unknown,A,,,,,,,,Gfs novi show lead 4/25,Gary,
C K O S - Catered Events,unknown,A,,,,,,,,Gfs novi show lead 4/25,Gary,
Cardinal Pizza,unknown,A,,,,,,,,Gfs novi show lead 4/25,Gary,
CDS - Miracle Camp and Retreat Cent,unknown,A,,,,,,,,Gfs novi show lead 4/25,Gary,
Chart Room,unknown,A,,,,,,,,Gfs novi show lead 4/25,Gary,
Chico's Bar and Grill,unknown,A,,,,,,,,Gfs novi show lead 4/25,Gary,
COMM ACTION - HEAD START,unknown,A,,,,,,,,Gfs novi show lead 4/25,Gary,
COUNTRY VIEW BULK FOODS,unknown,A,,,,,,,,Gfs novi show lead 4/25,Gary,
Cut River Grille,unknown,A,,,,,,,,Gfs novi show lead 4/25,Gary,
Daybreak Cafe,unknown,A,,,,,,,,Gfs novi show lead 4/25,Gary,
DELTON MEMORIAL VFW #422,unknown,A,,,,,,,,Gfs novi show lead 4/25,Gary,
DETROIT PIZZA FACTORY,unknown,A,,,,,,,,Gfs novi show lead 4/25,Gary,
Dockside Torch Lake,unknown,A,,,,,,,,Gfs novi show lead 4/25,Gary,
Double Down Desserts,unknown,A,,,,,,,,Gfs novi show lead 4/25,Gary,
DUCK LAKE COUNTRY CLUB 40461E,unknown,A,,,,,,,,Gfs novi show lead 4/25,Gary,
Eighteen87,unknown,A,,,,,,,,Gfs novi show lead 4/25,Gary,
EMBASSY BAR & GRILL,unknown,A,,,,,,,,Gfs novi show lead 4/25,Gary,
FEED BAG CAFE (THE),unknown,A,,,,,,,,Gfs novi show lead 4/25,Gary,
GAYLORD BOWLING CENTER,unknown,A,,,,,,,,"Gfs novi show lead 4/25
Contact: Sue Ann Braley
Contact: Sue Ann Braley",Gary,
GILLIES CONEY ISLAND/MT MORRIS,unknown,A,,,,,,,,Gfs novi show lead 4/25,Gary,
HACIENDA MEXICAN REST H-1,unknown,A,,,,,,,,Gfs novi show lead 4/25,Gary,
HAMLIN PUB - ROCHESTER HILLS,unknown,A,,,,,,,,Gfs novi show lead 4/25,Gary,
HENRY FORD COLLEGE,unknown,A,,,,,,,,Gfs novi show lead 4/25,Gary,
HENRY'S RESTAURANT- OTTAWA,unknown,A,,,,,,,,Gfs novi show lead 4/25,Gary,
HOG'S BACK FOOD CO-OP\ CAROLYN PERU,unknown,A,,,,,,,,Gfs novi show lead 4/25,Gary,
Jayell Smoke House,unknown,A,,,,,,,,Gfs novi show lead 4/25,Gary,
KEYS (THE),unknown,A,,,,,,,,Gfs novi show lead 4/25,Gary,
LOUHELEN BAHA'I SCHOOL,unknown,A,,,,,,,,Gfs novi show lead 4/25,Gary,
MORRISON LAKE GOLF CLUB,unknown,A,,,,,,,,Gfs novi show lead 4/25,Gary,
Mrs. Cs Grilled Cheese,unknown,A,,,,,,,,Gfs novi show lead 4/25,Gary,
POTTERVILLE INN,unknown,A,,,,,,,,Gfs novi show lead 4/25,Gary,
PRINCIPLE BUSINESS ENTERPRISES,unknown,A,,,,,,,,Gfs novi show lead 4/25,Gary,
Put In Bay Resort,unknown,A,,,,,,,,Gfs novi show lead 4/25,Gary,
RIVER ROCK BAR & GRILL,unknown,A,,,,,,,,Gfs novi show lead 4/25,Gary,
RIVERFRONT GRILLE,unknown,A,,,,,,,,Gfs novi show lead 4/25,Gary,
RIVERWALK GRILL,unknown,A,,,,,,,,Gfs novi show lead 4/25,Gary,
ROYAL OAK AMERICAN LEGION,unknown,A,,,,,,,,Gfs novi show lead 4/25,Gary,
SAGINAW CLUB,unknown,A,,,,,,,,Gfs novi show lead 4/25,Gary,
Shafer's Smoked Meats,unknown,A,,,,,,,,Gfs novi show lead 4/25,Gary,
shawnee country club,unknown,A,,,,,,,,Gfs novi show lead 4/25,Gary,
SMALL BATCH AT THE CUPOLA ROOM,unknown,A,,,,,,,,Gfs novi show lead 4/25,Gary,
Smokin' Pigs by Bigs,unknown,A,,,,,,,,Gfs novi show lead 4/25,Gary,
ST PETER LUTHERAN SCHOOL ACCOUNT,unknown,A,,,,,,,,Gfs novi show lead 4/25,Gary,
SUNRISE WAREHOUSE,unknown,A,,,,,,,,Gfs novi show lead 4/25,Gary,
The Cortland Northview,unknown,A,,,,,,,,Gfs novi show lead 4/25,Gary,
The Little Store,unknown,A,,,,,,,,Gfs novi show lead 4/25,Gary,
The Mayfield Tavern,unknown,A,,,,,,,,Gfs novi show lead 4/25,Gary,
The Pepper Mill,unknown,A,,,,,,,,Gfs novi show lead 4/25,Gary,
Towneplace Suites Ann Arbor,unknown,A,,,,,,,,Gfs novi show lead 4/25,Gary,
Trackside Eatery & Pub,unknown,A,,,,,,,,Gfs novi show lead 4/25,Gary,
TRAILS END PUB,unknown,A,,,,,,,,Gfs novi show lead 4/25,Gary,
Troy Escape,unknown,A,,,,,,,,Gfs novi show lead 4/25,Gary,
Turnaround Bar And Grille,unknown,A,,,,,,,,Gfs novi show lead 4/25,Gary,
Village Place- Greek,unknown,A,,,,,,,,Gfs novi show lead 4/25,Gary,
Zachariah's Chocolates,unknown,A,,,,,,,,Gfs novi show lead 4/25,Gary,
Zefs Lighthouse Tavern,unknown,A,,,,,,,,Gfs novi show lead 4/25,Gary,
MICHIGAN STATE POLICE TRAINING DIVI,unknown,A,,,,,,,,Gfs novi show lead 4/25,Gary,
SLOW'S TO GO 002,unknown,A,,,,,,,,Gfs novi show lead 4/25,Gary,
Treetops - Top Of Hill,unknown,A,,,,,,,,Gfs novi show lead 4/25,Gary,
All Nite Mobile Cafe,unknown,A,,,,,,,,Gfs novi show lead 4/25,Gary,
BRIGHTMOOR CHRISTIAN CHURCH,unknown,A,,,,,,,,Gfs novi show lead 4/25,Gary,
CAMP BLODGETT,unknown,A,,,,,,,,Gfs novi show lead 4/25,Gary,
CAMP CO-BE-AC,unknown,A,,,,,,,,Gfs novi show lead 4/25,Gary,
Carmella's Italian Ice,unknown,A,,,,,,,,Gfs novi show lead 4/25,Gary,
LINCOLN LAKE BAPTIST YOUTH CAMP,unknown,A,,,,,,,,Gfs novi show lead 4/25,Gary,
Sparrow Eaton,unknown,A,,,,,,,,Gfs novi show lead 4/25,Gary,
The New Tubbs Lake Resort,unknown,A,,,,,,,,Gfs novi show lead 4/25,Gary,
Merry Go Around,unknown,,,,,,evansville,IN,,left Kaufhold Sample pack,Brent,
Burger and Bowl,unknown,A,,,,,bowling green,KY,,Talked with chef Alfredo with Sasha group,Brent,
Giovanni's Pizza,customer,A,Pizza,,,,ashland,KY,,40 locations!,Brent,
The Drake - Oakbrook,customer,A,Hospitality,,,,Oakbrook,IL,,,Dale,
Hyatt Lodge,customer,A,Hospitality,,,,Oakbrook,IL,,Chef loved the samples; follow-up when SPIFF begins,Dale,
Mariott Naperville,customer,A,Hospitality,,,,Naperville,IL,,Chef loved the samples; follow-up when SPIFF begins,Dale,
Allegory,customer,B,Gastropub,,,,Naperville,IL,,Chef likely to buy are 4 skus,Dale,
SixtyFour,customer,B,Fine Dining,,,,Naperville,IL,,Loved the product,Dale,
TAR &Feather Concessions,customer,,Food Truck,,,,Westmoreland,TN,,sells bagels was looking for interest on plant base cream cheese,Brent,
White Hawk CC,customer,A,Country Clubs/Golf/Health Fitness,,,,Crown Point,IN,,May be worth looking into. 100+ units. Sysco account. Churros on menu. Tenn based,Dale,
Hot Chicken Takeover,customer,A,Chain/Group Member,OH,Columbus,,Columbus,OH,,11 locations,Brent,
Charleys Steakery,customer,A,Chain/Group Member,,,,Columbus,OH,,600 locatios!,Brent,
The Peach Cobbler,customer,A,Chain/Group Member,,,,,,,,Dale,
I,unknown,B,,,,,,,,,,
Indian Hills Country Club,customer,,Country Clubs/Golf/Health Fitness,,,,Bowling Green,KY,,,Brent,
Finish Line,customer,,Bar/Lounge,,,,Bowling Green,KY,,,Brent,
Bowling Green Country Club,customer,,Country Clubs/Golf/Health Fitness,,,,Bowling Green,KY,,,Brent,
Southern Lanes Bowling and arcade,customer,,Entertainment/Casinos/Theatres,,,,Bowling in Bowling Greenb,KY,,Kaufholds sample pack,Brent,
Wings Station BG,customer,,Fast food,,,,bowling Green,KY,,talked to owner if it had calm down for grand opening enough to revisist curds,Brent,
Jacobs Pub,customer,,Gastropub,,,,Evansville,KY,,has cheese curds on menu but are they the best Kaufholds,Brent,
Four Winds Casino,customer,A,Entertainment/Casinos/Theatres,,,,South Bend,IN,,,Dale,
Stevens Point,customer,A,College & Universites,,,,Stevens Point,WI,,Sampled at NACUFS,Dale,
Wisconsin Union,customer,A,College & Universites,,,,Madisom,WI,,Sampled at NACUFS,Dale,
University of Minnestota - Duluth,customer,A,College & Universites,,,,Duluth,MN,,Sampled at NACUFS,Dale,
University of Missouri,customer,A,College & Universites,,,,Columbia,MO,,Sampled at NACUFS,Dale,
ACF Sound Bend,customer,A,Business and Industry,,,,South Bend,IN,,,Dale,
The Rose Hotel,customer,A,Travel,,,,,IL,,Testa VAF BLITZ,Dale,
Three Embers Restaurant @ Marriott Lincolnshire Resort,unknown,A,,,,,,IL,,Testa VAF BLITZ,Dale,
Hyatt Centric Rosemont,customer,A,Travel,,,,,IL,,Testa VAF BLITZ,Dale,
Foodstuff's Evanston,unknown,A,,,,,,IL,,Testa VAF BLITZ,Michell,
Zelda's Catering,unknown,A,,,,,,IL,,Testa VAF BLITZ,Michell,
Abigail's,unknown,A,,,,,,IL,,Testa VAF BLITZ,Michell,
Summer House (Halsted Street Kitchen),unknown,A,,,,,Chicago,IL,,Testa VAF BLITZ Limcoln Park,Gary,
Kingling Cookout & Cocktails,unknown,A,,,,,Chicago,IL,,Testa VAF BLITZ 202 Franklin St-Chicago,Gary,
Lago Lake Zurich,unknown,A,,,,,,IL,,Testa VAF BLITZ,Michell,
Ema Chicago,unknown,A,,,,,,IL,,Testa VAF BLITZ,Michell,
Prasino,unknown,A,,,,,la Grange,IL,,Testa VAF BLITZ Lagrange rd La Grange,Gary,
Talbot Hotel,unknown,A,,,,,,IL,,Testa VAF BLITZ,Dale,
Bungalow,unknown,A,,,,,,IL,,Testa VAF BLITZ,Dale,
Hyatt Mag Mile,customer,A,Travel,,,,,IL,,Testa VAF BLITZ,Dale,
Atta Girl,unknown,A,,,,,,IL,,Testa VAF BLITZ,Dale,
Lardon,unknown,A,,,,,,IL,,Testa VAF BLITZ,Dale,
ACF Northwest Indiana,customer,A,Business and Industry,,,,,IN,,,Dale,
ACF Chicago,customer,A,Business and Industry,,,,,IL,,,Dale,
Wing Snob,customer,A,Chain/Group Member,,,,,,,80+ units. Focus is Tandoori Marination Base,Dale,
Barren Rivewr Lake Resort,customer,A,Hospitality,,,,Lucas,KY,,,Brent,
Asparagus,customer,A,Fine Dining,,,,Merrillville,IN,,Poke,Dale,
St Elmos,customer,A,Fine Dining,,,,,,,,,
Aurelios,customer,A,Pizza,,,,,,,,Dale,
caplingers,customer,A,Chain/Group Member,,,,,,,,Gary,
Hilton Double Tree Aslip,customer,A,Hospitality,,,,Alsip,,,Loves Poke. Uses Sysco & Wabash Seafood. Would buy from Abdale if stocked. Asked Carol to send a New Vendor Form,Dale,
Hartsfield,customer,B,Healthcare,,,,Munster,,,,Dale,
Tomato Bar,customer,B,Chain/Group Member,,,,,,,,Dale,
O'Bryan's Bar and Grill,customer,,Bar/Lounge,,,,Owensboro,KY,,,Brent,
PFG Louisville,distributor,A,,,,,,,,,Brent,
PFG Fairfeild,distributor,A,,,,,,,,,Brent,
US Foods Cleveland,distributor,A,,,,,Cleveland,OH,,emailed Rick-phoned left vm.,Brent,Sue
Dj's Casual Cafe,customer,,Casual,,,,Wellman,IA,,,Michell,
Hotel Blackwood,customer,,Travel,,,,Davenport,IA,,,Michell,
Main Street Meat Co.,customer,,Casual,,,,Davenport,IA,,,Michell,
Peanut Butter and Deli,customer,,Casual,,,,Morrison,IL,,,Michell,
Lubben Vineyards & Wines,customer,,Casual,,,,Anamosa,IA,,,Michell,
Petro Travel Center,customer,,Travel,,,,Rochelle,IL,,,Michell,
Hotel Julien Debuque,customer,,Travel,,,,Dubuque,IA,,,Michell,
Thristy Camel Supper Club,customer,,Casual,,,,Conesville,IA,,,Michell,
Hailstorm Brewing,customer,A,Gastropub,,,,Tinley Park,IL,,,Dale,
Sip Self Serve Wine Bar,customer,B,Gastropub,,,,,,,,Dale,
86 Food Service,distributor,A,,,,,,,,,Dale,
El Jefe,customer,,Ethnic,,,,Aurora,IL,60014,,Michell,
Bust Outs,customer,,Casual,,,,Chicago,IL,,,Michell,
Rabbits Bar,customer,,Casual,,,,Chicago,,,,Michell,
Harry Caray's Navy Pier,customer,,Gastropub,,,,,,,,Dale,
Pizzeria Portofino,customer,,Fine Dining,,,,,,,,Dale,
Harry Caray's,unknown,,,,,,,,,,,
ANDERSON FOODS,unknown,A,,,,,,MI,,GFS NOVI SHOW LEAD KURDS,Gary,
Battle Alley Brewing Company,unknown,A,,,,,,MI,,GFS NOVI SHOW LEAD KURDS,Gary,
BAY CLIFF HEALTH CAMP,unknown,A,,,,,,MI,,GFS NOVI SHOW LEAD KURDS,Gary,
Belva,unknown,A,,,,,,MI,,GFS NOVI SHOW LEAD KURDS,Gary,
BENS SUPERCENTER,unknown,A,,,,,,MI,,GFS NOVI SHOW LEAD KURDS,Gary,
Bluebird,unknown,A,,,,,,MI,,GFS NOVI SHOW LEAD KURDS,Gary,
BOARDWALK (THE),unknown,A,,,,,,MI,,GFS NOVI SHOW LEAD KURDS,Gary,
Boyne River Inn,unknown,A,,,,,,MI,,GFS NOVI SHOW LEAD KURDS,Gary,
BSA-COLE CANOE,unknown,A,,,,,,MI,,GFS NOVI SHOW LEAD KURDS,Gary,
C K O S - Catered Events,unknown,A,,,,,,MI,,GFS NOVI SHOW LEAD KURDS,Gary,
Cardinal Pizza,unknown,A,,,,,,MI,,GFS NOVI SHOW LEAD KURDS,Gary,
CDS - Miracle Camp and Retreat Cent,unknown,A,,,,,,MI,,GFS NOVI SHOW LEAD KURDS,Gary,
Chart Room,unknown,A,,,,,,MI,,GFS NOVI SHOW LEAD KURDS,Gary,
Chico's Bar and Grill,unknown,A,,,,,,MI,,GFS NOVI SHOW LEAD KURDS,Gary,
COMM ACTION - HEAD START,unknown,A,,,,,,MI,,GFS NOVI SHOW LEAD KURDS,Gary,
COUNTRY VIEW BULK FOODS,unknown,A,,,,,,MI,,GFS NOVI SHOW LEAD KURDS,Gary,
Cut River Grille,unknown,A,,,,,,MI,,GFS NOVI SHOW LEAD KURDS,Gary,
Daybreak Cafe,unknown,A,,,,,,MI,,GFS NOVI SHOW LEAD KURDS,Gary,
DELTON MEMORIAL VFW #422,unknown,A,,,,,,MI,,GFS NOVI SHOW LEAD KURDS,Gary,
DETROIT PIZZA FACTORY,unknown,A,,,,,,MI,,GFS NOVI SHOW LEAD KURDS,Gary,
Dockside Torch Lake,unknown,A,,,,,,MI,,GFS NOVI SHOW LEAD KURDS,Gary,
Double Down Desserts,unknown,A,,,,,,MI,,GFS NOVI SHOW LEAD KURDS,Gary,
DUCK LAKE COUNTRY CLUB 40461E,unknown,A,,,,,,MI,,GFS NOVI SHOW LEAD KURDS,Gary,
Eighteen87,unknown,A,,,,,,MI,,GFS NOVI SHOW LEAD KURDS,Gary,
EMBASSY BAR & GRILL,unknown,A,,,,,,MI,,GFS NOVI SHOW LEAD KURDS,Gary,
FEED BAG CAFE (THE),unknown,A,,,,,,MI,,GFS NOVI SHOW LEAD KURDS,Gary,
GAYLORD BOWLING CENTER,unknown,A,,,,,,MI,,"GFS NOVI SHOW LEAD KURDS
Contact: Sue Ann Braley
Contact: Sue Ann Braley",Gary,
GILLIES CONEY ISLAND/MT MORRIS,unknown,A,,,,,,MI,,GFS NOVI SHOW LEAD KURDS,Gary,
HACIENDA MEXICAN REST H-1,unknown,A,,,,,,MI,,GFS NOVI SHOW LEAD KURDS,Gary,
HAMLIN PUB - ROCHESTER HILLS,unknown,A,,,,,,MI,,GFS NOVI SHOW LEAD KURDS,Gary,
HENRY FORD COLLEGE,unknown,A,,,,,,MI,,GFS NOVI SHOW LEAD KURDS,Gary,
HENRY'S RESTAURANT- OTTAWA,unknown,A,,,,,,MI,,GFS NOVI SHOW LEAD KURDS,Gary,
HOG'S BACK FOOD CO-OP\ CAROLYN PERU,unknown,A,,,,,,MI,,GFS NOVI SHOW LEAD KURDS,Gary,
Jayell Smoke House,unknown,A,,,,,,MI,,GFS NOVI SHOW LEAD KURDS,Gary,
KEYS (THE),unknown,A,,,,,,MI,,GFS NOVI SHOW LEAD KURDS,Gary,
LOUHELEN BAHA'I SCHOOL,unknown,A,,,,,,MI,,GFS NOVI SHOW LEAD KURDS,Gary,
MORRISON LAKE GOLF CLUB,unknown,A,,,,,,MI,,GFS NOVI SHOW LEAD KURDS,Gary,
Mrs. Cs Grilled Cheese,unknown,A,,,,,,MI,,GFS NOVI SHOW LEAD KURDS,Gary,
POTTERVILLE INN,unknown,A,,,,,,MI,,GFS NOVI SHOW LEAD KURDS,Gary,
PRINCIPLE BUSINESS ENTERPRISES,unknown,A,,,,,,MI,,GFS NOVI SHOW LEAD KURDS,Gary,
Put In Bay Resort,unknown,A,,,,,,MI,,GFS NOVI SHOW LEAD KURDS,Gary,
RIVER ROCK BAR & GRILL,unknown,A,,,,,,MI,,GFS NOVI SHOW LEAD KURDS,Gary,
RIVERFRONT GRILLE,unknown,A,,,,,,MI,,GFS NOVI SHOW LEAD KURDS,Gary,
RIVERWALK GRILL,unknown,A,,,,,,MI,,GFS NOVI SHOW LEAD KURDS,Gary,
ROYAL OAK AMERICAN LEGION,unknown,A,,,,,,MI,,GFS NOVI SHOW LEAD KURDS,Gary,
SAGINAW CLUB,unknown,A,,,,,,MI,,GFS NOVI SHOW LEAD KURDS,Gary,
Shafer's Smoked Meats,unknown,A,,,,,,MI,,GFS NOVI SHOW LEAD KURDS,Gary,
shawnee country club,unknown,A,,,,,,MI,,GFS NOVI SHOW LEAD KURDS,Gary,
SMALL BATCH AT THE CUPOLA ROOM,unknown,A,,,,,,MI,,GFS NOVI SHOW LEAD KURDS,Gary,
Smokin' Pigs by Bigs,unknown,A,,,,,,MI,,GFS NOVI SHOW LEAD KURDS,Gary,
ST PETER LUTHERAN SCHOOL ACCOUNT,unknown,A,,,,,,MI,,GFS NOVI SHOW LEAD KURDS,Gary,
SUNRISE WAREHOUSE,unknown,A,,,,,,MI,,GFS NOVI SHOW LEAD KURDS,Gary,
The Cortland Northview,unknown,A,,,,,,MI,,GFS NOVI SHOW LEAD KURDS,Gary,
The Little Store,unknown,A,,,,,,MI,,GFS NOVI SHOW LEAD KURDS,Gary,
The Mayfield Tavern,unknown,A,,,,,,MI,,GFS NOVI SHOW LEAD KURDS,Gary,
The Pepper Mill,unknown,A,,,,,,MI,,GFS NOVI SHOW LEAD KURDS,Gary,
Towneplace Suites Ann Arbor,unknown,A,,,,,,MI,,GFS NOVI SHOW LEAD KURDS,Gary,
Trackside Eatery & Pub,unknown,A,,,,,,MI,,GFS NOVI SHOW LEAD KURDS,Gary,
TRAILS END PUB,unknown,A,,,,,,MI,,GFS NOVI SHOW LEAD KURDS,Gary,
Troy Escape,unknown,A,,,,,,MI,,GFS NOVI SHOW LEAD KURDS,Gary,
Turnaround Bar And Grille,unknown,A,,,,,,MI,,GFS NOVI SHOW LEAD KURDS,Gary,
Village Place- Greek,unknown,A,,,,,,MI,,GFS NOVI SHOW LEAD KURDS,Gary,
Zachariah's Chocolates,unknown,A,,,,,,MI,,GFS NOVI SHOW LEAD KURDS,Gary,
Zefs Lighthouse Tavern,unknown,A,,,,,,MI,,GFS NOVI SHOW LEAD KURDS,Gary,
MICHIGAN STATE POLICE TRAINING DIVI,unknown,A,,,,,,MI,,GFS NOVI SHOW LEAD KURDS,Gary,
SLOW'S TO GO 002,unknown,A,,,,,,MI,,GFS NOVI SHOW LEAD KURDS,Gary,
Treetops - Top Of Hill,unknown,A,,,,,,MI,,GFS NOVI SHOW LEAD KURDS,Gary,
All Nite Mobile Cafe,unknown,A,,,,,,MI,,GFS NOVI SHOW LEAD KURDS,Gary,
BRIGHTMOOR CHRISTIAN CHURCH,unknown,A,,,,,,MI,,GFS NOVI SHOW LEAD KURDS,Gary,
CAMP BLODGETT,unknown,A,,,,,,MI,,GFS NOVI SHOW LEAD KURDS,Gary,
CAMP CO-BE-AC,unknown,A,,,,,,MI,,GFS NOVI SHOW LEAD KURDS,Gary,
Carmella's Italian Ice,unknown,A,,,,,,MI,,GFS NOVI SHOW LEAD KURDS,Gary,
LINCOLN LAKE BAPTIST YOUTH CAMP,unknown,A,,,,,,MI,,GFS NOVI SHOW LEAD KURDS,Gary,
Sparrow Eaton,unknown,A,,,,,,MI,,GFS NOVI SHOW LEAD KURDS,Gary,
The New Tubbs Lake Resort,unknown,A,,,,,,MI,,GFS NOVI SHOW LEAD KURDS,Gary,
Fortune,distributor,A,,,,,,IL,,,Michell,
Grecian Delight,distributor,A,,,,,,IL,,,Michell,
Food and Paper,distributor,A,,,,,,IL,,,Michell,
Badger,distributor,A,,,,,,IL,,,Michell,
Kohls,distributor,A,,,,,,IL,,,Michell,
Kuna,distributor,A,,,,,,IL,,,Michell,
Battaglia,distributor,A,,,,,,IL,,,Craig,
Badger Murphy,distributor,A,,,,,,IL,,,,
Chefs Kitchen,distributor,A,,,,,,IL,,,Dale,
Fare Foods,distributor,A,,,,,,IL,,,,
S&L Produce,distributor,A,,,,,,IL,,,,
Supreme Lobster,distributor,A,,,,,,IL,,,Michell,
Total Foods,distributor,A,,,,,,IL,,,,
RDP,distributor,A,,,,,,IL,,,Dale,
PFG-all,distributor,A,,,,,,IL,,,,
Pancho,distributor,A,,,,,,IL,,,Dale,
Wilkens,distributor,A,,,,,,IL,,,,
Testa,distributor,A,,,,,,IL,,,Sue,
Get Fresh,distributor,A,,,,,,,,,Gary,
All in IN/OH/KY/MI,distributor,A,,,,,,,,,Gary,
GFS-all,distributor,A,,,,,,,,,Gary,
Delco,distributor,A,,,,,,,,,Gary,
Northern Haserot,distributor,A,,,,,,,,,Gary,
Atlantic,distributor,A,,,,,,,,,Gary,
PFG KY/TN,distributor,A,,,,,,,,,Gary,
"RAYDIA (B&B, Stanz, Troyers)",distributor,A,,,,,,,,,Gary,
SUPERIOR Foods,distributor,A,,,,,,,,,Gary,
Stapleton Foods,distributor,A,,,,,,,,,Gary,
P+L food,distributor,A,,,,,,,,,Gary,
Al Peake & Sons,distributor,A,,,,,,,,,Mike,
Lannings Newark,distributor,A,,,,,,,,,Mike,
PFG Cincinnati (formerly Reinhart),distributor,A,,,,,,,,,Mike,
Premier Produce 1,distributor,A,,,,,,,,,Mike,
RDP Columbus,distributor,A,,,,,,,,,Mike,
Ritchies Food Service,distributor,A,,,,,,,,,Mike,
Sofo,distributor,A,,,,,,,,,Mike,
TPC Food Service Tiffin,distributor,A,,,,,,,,,Mike,
White Feather Farms,distributor,A,,,,,,,,,Mike,
Dutch Creek Foods,distributor,A,,,,,,,,,Mike,
Euclid Fish Company,distributor,A,,,,,,,,,Mike,
Rightway,distributor,A,,,,,,,,,Mike,
Thompson and Sons,distributor,A,,,,,,,,,Mike,
USF Cincy,distributor,A,,,,,,,,,Mike,
GFS Sprongfield,distributor,A,,,,,,,,,Mike,
SYSCO Cincy,distributor,A,,,,,,,,,Mike,
PFG,distributor,A,,,,,,,,,Mike,
Butts Foods,distributor,A,,,,,,,,,Mike,
Chefs Kitchen,distributor,A,,,,,,,,,Mike,
Dutch Creek Foods,distributor,A,,,,,,,,,Mike,
Euclid Fish Company,distributor,A,,,,,,,,,Mike,
Fare Foods Corp.,distributor,A,,,,,,,,,Mike,
"Kern Food Distributing, Inc.",distributor,A,,,,,,,,,Mike,
Loffredo Fresh Produce,distributor,A,,,,,,,,,Mike,
"P&L Food Wholesalers, Inc.",distributor,A,,,,,,,,,Mike,
Premier ProduceOne,distributor,A,,,,,,,,,Mike,
RightWay Food Service,distributor,A,,,,,,,,,Mike,
"S & L Produce, Inc.",distributor,A,,,,,,,,,Mike,
"Stapletons, Inc.",distributor,A,,,,,,,,,Mike,
Thompson and Sons Bakery Supply,distributor,A,,,,,,,,,Mike,
Total Foods Inc.,customer,A,Fine Dining,,,,,MI,,New Clearwater Belgian frites approved from Frotes Street,Gary,
HT Hackney,distributor,,,,,,,,,,,
PFG-BG,customer,A,Casual,,,,"800 E Ogden Ave, Westmont, IL 60559",IL,,,Michell,
Sysco,customer,A,Casual,,,,"39 S Arlington Heights Rd, Elk Grove Village, IL 60007",IL,,,Michell,
Coppolillos,customer,A,Chain/Group Member,,,,Crown Point,IN,,"dale will pirsue for VAF, Frites ANNASEA",Dale,
PFG-Nashville,customer,,Gastropub,,,,607 N Main St,IN,,dropped off kaufholds sample box he was looking to upgrade from Anchor ones,Brent,
Timothy O'Tool,customer,,Gastropub,,,,Gurnee,IL,,,Michell,Michell
Cajun Grill,customer,,Fast food,,,,Gurnee,IL,,,Michell,
Riverside Cafe,customer,,Casual,,,,Gurnee,IL,,,Michell,
Puff Shack BBQ,customer,,Casual,,,,St. Charles,IL,,,Michell,
El Puente,customer,,Ethnic,,,,st. Charles,,,,Michell,
Marz Brewery,unknown,,,,,,Chicago,IL,,,Michell,
Logan 11 Bar,customer,,Gastropub,,,,Chicago,IL,,,Michell,
Federales,customer,,Gastropub,,,,Chicago,IL,,,Michell,
Mano a Mano,customer,,Gastropub,,,,Chicago,IL,,,Michell,
University Center MSU,customer,A,Fine Dining,,,,Lansing,MI,,,Gary,
joes on jolly,customer,A,Gastropub,,,,Lansing,MI,,,Gary,
S. Abraham and sons,distributor,A,,,,,Grand Rapids,MI,,,,
Gun Lake Casino,customer,A,Entertainment/Casinos/Theatres,,,,,MI,,,Gary,
HORROCKS,customer,A,Retail,,,,lansing,MI,,,Gary,
Bavarian Inn,customer,A,Entertainment/Casinos/Theatres,,,,Frankenmuth,MI,,,Gary,
Bagger Daves,customer,A,Chain/Group Member,,,,grand Rapids,MI,,,Gary,
One North,customer,A,Chain/Group Member,,,,,MI,,,Gary,
Main Street Romeo,customer,B,Gastropub,,,,romeo,MI,,,Gary,
Jayell BBq,customer,B,Bar/Lounge,,,,romeo,MI,,,Gary,
GFS Saginaw,customer,A,Chain/Group Member,,,,saginaw,MI,,,Gary,
Crown Plaza Lansing,customer,A,Fine Dining,,,,Lansing,MI,,,Gary,
Shelby's Trio,customer,A,Gastropub,,,,Clarksville,TN,,,Brent,
Pbody's,customer,A,Gastropub,,,,Clarksville,TN,,,Brent,
Mr. Billy's,customer,A,Gastropub,,,,Clarksville,TN,,,Brent,
Clarksville's 3rd Base,customer,A,Gastropub,,,,Clarksville,TN,,,Brent,
Olga's kitchen,unknown,,,,,,,MI,,,Gary,
Buddys Pizza,unknown,,,,,,,MI,,,Gary,
Baggers Dave,unknown,,,,,,,MI,,,Gary,
Fishbones Detroit,unknown,,,,,,,MI,,,Gary,
Zo's Good Burger,unknown,,,,,,,MI,,,Gary,
Halo Burger,unknown,,,,,,,MI,,,Gary,
sweetwater tavern,unknown,,,,,,,MI,,,Gary,
leos coney island,unknown,A,,,,,,MI,,,Gary,
big john steak and onion,unknown,A,,,,,,MI,,,Gary,
jolly pumpkin,unknown,A,,,,,,MI,,,Gary,
national coney island,unknown,A,,,,,,MI,,,Gary,
bobcat bonnies,unknown,A,,,,,,MI,,,Gary,
ram's horn,unknown,A,,,,,,MI,,,Gary,
the dirty shake,unknown,A,,,,,,MI,,,Gary,
bobs big boy,unknown,A,,,,,,MI,,,Gary,
nepantia cafe,unknown,A,,,,,,MI,,,Gary,
atlas foods,distributor,A,,,,,,MI,,,Gary,
g&l wholesale,distributor,A,,,,,,MI,,,Gary,
arena food service,distributor,A,,,,,,MI,,,Gary,
sysco detroit,distributor,A,,,,,,MI,,,Gary,
Shogun Bistro BG,customer,,Casual,,,,,KY,,Will meet owner Ronny with Sales Rep to show Cheesecake Holiday wheel for 6 locations,Brent,
The Army and Navy Club,unknown,A,,,,,,,,NRA ANNASEA LEADS,Gary,
The Park at Fourteenth,unknown,A,,,,,,,,NRA ANNASEA LEADS,Gary,Gary
American Culinary Federation,unknown,A,,,,,,,,NRA ANNASEA LEADS,Gary,Gary
American Frozen Food Institute,unknown,A,,,,,,,,NRA ANNASEA LEADS,Gary,Gary
Biscottis,unknown,A,,,,,,,,NRA ANNASEA LEADS,Gary,Gary
blackpearl hospitality,unknown,A,,,,,,,,NRA ANNASEA LEADS,Gary,Gary
Driftwood Hospitality Management,unknown,A,,,,,,,,NRA ANNASEA LEADS,Gary,Gary
Elior NA,unknown,A,,,,,,,,NRA ANNASEA LEADS,Gary,Gary
Mena Catering,unknown,A,,,,,,,,NRA ANNASEA LEADS,Gary,Gary
The Melting Pot,unknown,A,,,,,,,,NRA ANNASEA LEADS,Gary,Gary
Troon - Esplanade Golf & Country Club,unknown,A,,,,,,,,NRA ANNASEA LEADS,Gary,Gary
tryst lounge,unknown,A,,,,,,,,NRA ANNASEA LEADS,Gary,Gary
"Aramark Services, Inc",unknown,A,,,,,,,,NRA ANNASEA LEADS,Gary,Gary
ARCO Design/Build,unknown,A,,,,,,,,NRA ANNASEA LEADS,Gary,Gary
gekko kitchen commissary inc,unknown,A,,,,,,,,NRA ANNASEA LEADS,Gary,Gary
Landings Club,unknown,A,,,,,,,,NRA ANNASEA LEADS,Gary,Gary
RaceTrac,unknown,A,,,,,,,,NRA ANNASEA LEADS,Gary,Gary
Tandoori Pizza & Wing Co.,unknown,A,,,,,,,,NRA ANNASEA LEADS,Gary,Gary
Army MWR,unknown,A,,,,,,,,NRA ANNASEA LEADS,Gary,Gary
Bagel Miller,unknown,A,,,,,,,,NRA ANNASEA LEADS,Gary,Gary
Eddie Merlots,unknown,A,,,,,,,,NRA ANNASEA LEADS,Gary,Gary
Exmoor Country Club,unknown,A,,,,,,,,NRA ANNASEA LEADS,Gary,Gary
"Fireplace Inns, Inc",unknown,A,,,,,,,,NRA ANNASEA LEADS,Gary,Gary
Flavorista,unknown,A,,,,,,,,NRA ANNASEA LEADS,Gary,Gary
R Whittingham Meat Corp,unknown,A,,,,,,,,NRA ANNASEA LEADS,Gary,Gary
Ready Set Gourmet,unknown,A,,,,,,,,NRA ANNASEA LEADS,Gary,Gary
Sakamoto Restaurant Inc,unknown,A,,,,,,,,NRA ANNASEA LEADS,Gary,Gary
School District U-46,unknown,A,,,,,,,,NRA ANNASEA LEADS,Gary,Gary
Scooby Drew's (Soon to Be) World Famous Pickles,unknown,A,,,,,,,,NRA ANNASEA LEADS,Gary,Gary
SNAIL CAVIAR,unknown,A,,,,,,,,NRA ANNASEA LEADS,Gary,Gary
The Food Institute,unknown,A,,,,,,,,NRA ANNASEA LEADS,Gary,Gary
The Metropolitan Club,unknown,A,,,,,,,,NRA ANNASEA LEADS,Gary,Gary
Compass Community Living,unknown,A,,,,,,,,NRA ANNASEA LEADS,Gary,Gary
Purdue Northwest,unknown,A,,,,,,,,NRA ANNASEA LEADS,Gary,Gary
Purdue University Northwest,unknown,A,,,,,,,,NRA ANNASEA LEADS,Gary,Gary
Tea Plus Poke,unknown,A,,,,,,,,NRA ANNASEA LEADS,Gary,Gary
Texas Roadhouse,unknown,A,,,,,,,,NRA ANNASEA LEADS,Gary,Gary
North Coast Seafoods,unknown,A,,,,,,,,NRA ANNASEA LEADS,Gary,Gary
Sysco Foods,unknown,A,,,,,,,,NRA ANNASEA LEADS,Gary,Gary
La Chow,unknown,A,,,,,,,,NRA ANNASEA LEADS,Gary,Gary
Saval Foodservice,unknown,A,,,,,,,,NRA ANNASEA LEADS,Gary,Gary
Beyond Juicery & Eatery,unknown,A,,,,,,,,NRA ANNASEA LEADS,Gary,Gary
Coldbreak,unknown,A,,,,,,,,NRA ANNASEA LEADS,Gary,Gary
Crowne Plaza Lansing,unknown,A,,,,,,,,NRA ANNASEA LEADS,Gary,Gary
K&K Catering,unknown,A,,,,,,,,NRA ANNASEA LEADS,Gary,Gary
Michigan State University,unknown,A,,,,,,,,"NRA ANNASEA LEADS
Contact: Patrick  Gibson 231.410.8730 jordan | Email: durkinj3@msu.edu",Gary,Gary
Morrison Living,unknown,A,,,,,,,,NRA ANNASEA LEADS,Gary,Gary
Stark Provisions,unknown,A,,,,,,,,NRA ANNASEA LEADS,Gary,Gary
The Corner Social,unknown,A,,,,,,,,NRA ANNASEA LEADS,Gary,Gary
Ts Food LLC,unknown,A,,,,,,,,NRA ANNASEA LEADS,Gary,Gary
Mocha Point Coffee Co.,unknown,A,,,,,,,,NRA ANNASEA LEADS,Gary,Gary
Compass Group: Morrison Health,unknown,A,,,,,,,,"NRA ANNASEA LEADS
Contact: Malnar MBA RD LDN | Email: lauramalnar@iammorrison.com | Phone: 7655327689",Gary,Gary
Levy Restaurants,unknown,A,,,,,,,,NRA ANNASEA LEADS,Gary,Gary
los Tres Magueyes,unknown,A,,,,,,,,NRA ANNASEA LEADS,Gary,Gary
UNC Rex Healthcare,unknown,A,,,,,,,,NRA ANNASEA LEADS,Gary,Gary
NEARNG,unknown,A,,,,,,,,NRA ANNASEA LEADS,Gary,Gary
NEARNG,unknown,A,,,,,,,,NRA ANNASEA LEADS,Gary,Gary
Marriott Hanover,unknown,A,,,,,,,,NRA ANNASEA LEADS,Gary,Gary
Fineline Settings,unknown,A,,,,,,,,NRA ANNASEA LEADS,Gary,Gary
Lifeworks,unknown,A,,,,,,,,NRA ANNASEA LEADS,Gary,Gary
Rochester Institute of Technology,unknown,A,,,,,,,,NRA ANNASEA LEADS,Gary,Gary
Rochester Institute of Technology,unknown,A,,,,,,,,NRA ANNASEA LEADS,Gary,Gary
Volcora,unknown,A,,,,,,,,NRA ANNASEA LEADS,Gary,Gary
ARTISAN  PIZZA CAFe,unknown,A,,,,,,,,NRA ANNASEA LEADS,Gary,Gary
Audrey's Avenue Kitchen & Bar,unknown,A,,,,,,,,NRA ANNASEA LEADS,Gary,Gary
Boscoes,unknown,A,,,,,,,,NRA ANNASEA LEADS,Gary,Gary
CuriosiTea Emporium LLC,unknown,A,,,,,,,,NRA ANNASEA LEADS,Gary,Gary
Station Square,unknown,A,,,,,,,,NRA ANNASEA LEADS,Gary,Gary
Station Square,unknown,A,,,,,,,,NRA ANNASEA LEADS,Gary,Gary
Station Square,unknown,A,,,,,,,,NRA ANNASEA LEADS,Gary,Gary
Taste the World in Cincy LLC,unknown,A,,,,,,,,NRA ANNASEA LEADS,Gary,Gary
Hal Smith Restaurants,unknown,A,,,,,,,,NRA ANNASEA LEADS,Gary,Gary
Hal Smith Restaurants,unknown,A,,,,,,,,NRA ANNASEA LEADS,Gary,Gary
Coughlin's Law,unknown,A,,,,,,,,NRA ANNASEA LEADS,Gary,Gary
Fleet Landing,unknown,A,,,,,,,,NRA ANNASEA LEADS,Gary,Gary
Real Food Restaurants Inc,unknown,A,,,,,,,,NRA ANNASEA LEADS,Gary,Gary
Springdale Hall Club,unknown,A,,,,,,,,NRA ANNASEA LEADS,Gary,Gary
Chowbus,unknown,A,,,,,,,,NRA ANNASEA LEADS,Gary,Gary
Elior North America - Dining and Events,unknown,A,,,,,,,,NRA ANNASEA LEADS,Gary,Gary
Embassy Suites San Antonio Riverwalk,unknown,A,,,,,,,,NRA ANNASEA LEADS,Gary,Gary
Ka sushi,unknown,A,,,,,,,,NRA ANNASEA LEADS,Gary,Gary
Legends / Dallas Cowboys,unknown,A,,,,,,,,NRA ANNASEA LEADS,Gary,Gary
Agile Hospitality,unknown,A,,,,,,,,NRA ANNASEA LEADS,Gary,Gary
JOINT EXPEDITIONARY BASE LITTLE CREEK,unknown,A,,,,,,,,NRA ANNASEA LEADS,Gary,Gary
Macados,unknown,A,,,,,,,,NRA ANNASEA LEADS,Gary,Gary
MACADO'S INC,unknown,A,,,,,,,,NRA ANNASEA LEADS,Gary,Gary
Pig & Sam Restaurant Group,unknown,A,,,,,,,,NRA ANNASEA LEADS,Gary,Gary
AJ's Riverside,unknown,A,,,,,,,,NRA ANNASEA LEADS,Gary,Gary
Fox Hollow Golf Course,unknown,A,,,,,,,,NRA ANNASEA LEADS,Gary,Gary
Magpies / Fat Cat's / Creekside Jack's,unknown,A,,,,,,,,NRA ANNASEA LEADS,Gary,Gary
Moran's Pub,unknown,A,,,,,,,,NRA ANNASEA LEADS,Gary,Gary
UPPER CRUST PIZZERIA & PUB,unknown,A,,,,,,,,NRA ANNASEA LEADS,Gary,Gary
Fireside Grille,unknown,,,,,,,,,,Gary,
I Dream of Falafel,unknown,,,,,,,,,,Gary,
Country House Restaurant,unknown,,,,,,,,,,Gary,
FROSTY DOGS,unknown,,,,,,,,,,Gary,
Village of Hoffman Estates,unknown,,,,,,,,,,Gary,
Silver Lake Restaurant,unknown,,,,,,,,,,Gary,
Matajini mvp llc,unknown,,,,,,,,,,Gary,
"N.Kotake,Inc",unknown,,,,,,,,,,Gary,
KT,unknown,,,,,,,,,,Gary,
sip Wine Bar,unknown,,,,,,,,,,Gary,
Lettuce Entertain You,unknown,,,,,,,,,,Gary,
Imperial Surveillance,unknown,,,,,,,,,,Gary,
OCallaghan's,unknown,,,,,,,IL,,NRA KAUFHOLDS,Gary,
Hailstorm Brewing Company,unknown,,,,,,,IL,,NRA KAUFHOLDS,Gary,
Trails Edge Brewing Co,unknown,,,,,,,IL,,NRA KAUFHOLDS,Gary,
Porky's BBQ,unknown,,,,,,,IL,,NRA KAUFHOLDS,Gary,
Pine Valley Country Club,unknown,,,,,,,IL,,NRA KAUFHOLDS,Gary,
JOE'S GROUP,unknown,,,,,,,IL,,NRA KAUFHOLDS,Gary,
Carol's Catering,unknown,,,,,,,IL,,NRA KAUFHOLDS,Gary,
Chef Jamie's,unknown,,,,,,,IL,,NRA KAUFHOLDS,Gary,
Michigan State University,unknown,,,,,,,IL,,"NRA KAUFHOLDS
Contact: Patrick  Gibson 231.410.8730 jordan | Email: durkinj3@msu.edu",Gary,
Big Daddy's BBQ,unknown,,,,,,,IL,,NRA KAUFHOLDS,Gary,
The River Merchant,unknown,,,,,,,IL,,NRA KAUFHOLDS,Gary,
Georgios Restaurants,unknown,,,,,,,IL,,NRA KAUFHOLDS,Gary,
HVYC,unknown,,,,,,,IL,,NRA KAUFHOLDS,Gary,
Captian D's,customer,,Fast food,,,,,IL,,NRA KAUFHOLDS,Brent,
Hyatt Regency Salt Lake City,customer,,Hospitality,,,,,,,,Dale,
Panos,distributor,,,,,,,IN,,NRA KAUFHOLDS,Craig,Dale
Calo Restaurant,unknown,A,,,,,,IN,,"NRA KAUFHOLDS
Contact: Frank ( Chef) | Phone: (773) 271-7782",,
Baraga County Memorial Hospital,unknown,,,,,,,IN,,NRA KAUFHOLDS,,
Gogebic Community College,unknown,,,,,,,IN,,NRA KAUFHOLDS,,
Michigan Technological University,unknown,,,,,,,KY,,NRA KAUFHOLDS,,
Michigan Technological University,unknown,,,,,,,MI,,NRA KAUFHOLDS,,
Helen Newberry Joy Hospital,unknown,,,,,,,OH,,NRA KAUFHOLDS,,
USF-CHICAGO,unknown,,,,,,,OH,,NRA KAUFHOLDS,,
USF-STREATOR,unknown,,,,,,,OH,,NRA KAUFHOLDS,,
USF-C&U,unknown,,,,,,,OH,,NRA KAUFHOLDS,,
Adams Memorial Hospital,unknown,,,,,,,,,,,
Premier Arts Academy,unknown,,,,,,,,,,,
Premier Arts Academy,unknown,,,,,,,,,,,
PFG-Western Suburbs,unknown,,,,,,,,,"Contact: Cortez, Alvaro ""Cisco"" | Email: Alvaro.Cortez@pfgc.com | Phone: 331-321-1127
Contact: Vedziovski, Burim ""Brian"" | Email: Brian.Vedziovski@pfgc.com | Phone: 920-723-3723",,
Gordon Foodservice,unknown,A,,,,,,,,,,
ABBOTT AP6D DEPT GE03,unknown,A,,,,,,,,,Michell,
ABBVIE AP30,unknown,A,,,,,,,,,Michell,
ABBVIE M1,unknown,A,,,,,North Chicago,,,,Michell,
ACARATH MONTESSORI,unknown,,,,,,NORTH CHICAGO,,,,Michell,
AGING AND DISABILITY RESOURCE CENTE,unknown,,,,,,SCHAUMBURG,,,,Michell,
AMERICAN ACCORD FOOD CORPORATION,unknown,,,,,,,,,,Michell,
Ami-Gos Tacos,unknown,,,,,,,,,,Michell,
Angry Octopus,unknown,,,,,,Lincoln,,,,Michell,
APOSTOLIC CHURCH OF GOD,unknown,,,,,,Chicago,,,,Michell,
Area Career Center,unknown,,,,,,Chicago,,,,Michell,
ASSEMBLY AMERICAN BAR & CAFE (THE),unknown,,,,,,,,,,Michell,
Barnstormer's Pizza,unknown,,,,,,Hoffman estates,,,,Michell,
Beverly Country Club,unknown,,,,,,St Joseph,,,,Michell,
BJ'S RESTAURANT,unknown,,,,,,Chicago,,,,Michell,
Burlington Tap and Smokehouse,unknown,,,,,,SPRINGFIELD,,,,Michell,
Cheers In Chesterton,unknown,,,,,,Burlington,,,,Michell,
Chicago Health Foods,unknown,,,,,,,,,,Michell,
Chicago Health Foods,unknown,,,,,,,,,,Michell,
CLEMENTINE'S SALOON,unknown,,,,,,,,,,Michell,
Community Hospital Food Service,unknown,,,,,,,,,,Michell,
CORNER PUB & GRILL,unknown,,,,,,,,,,Michell,
Countrytime Kettle Korn McHenry,unknown,,,,,,SPRINGFIELD,,,,Michell,
CREME OF THE CROP,unknown,,,,,,Mchenry,,,,Michell,
CRYSTAL VALLEY CATERING,unknown,,,,,,Kankakee,,,,Michell,
Dabney & Co,unknown,,,,,,,,,,Michell,
Dabney & Co,unknown,,,,,,Kalamazoo,,,,Michell,
Daydreamer Domes,unknown,,,,,,Kalamazoo,,,,Michell,
DR JOHN WARNER HOSPITAL,unknown,,,,,,,,,,Michell,
DR JOHN WARNER HOSPITAL,unknown,,,,,,CLINTON,,,,Michell,
DREAM PALACE BANQUET HALL,unknown,,,,,,CLINTON,,,,Michell,
Driftless Social,unknown,,,,,,CHICAGO,,,,Michell,
E I U- FOOD COURT,unknown,,,,,,,,,,Michell,
E I U- FOOD COURT,unknown,,,,,,Charleston,,,,Michell,
Elkhorn Area High School Culinary A,unknown,,,,,,Charleston,,,,Michell,
Elston Ave Food Co. 392959E,unknown,,,,,,,,,,Michell,
EPIC BURGER-PEARSON ST,unknown,,,,,,CHICAGO,,,,Michell,
ESPERANZA SCHOOL,unknown,,,,,,Chicago,,,,Michell,
Faklandia Brewing,unknown,,,,,,Chicago,,,,Michell,
Faklandia Brewing,unknown,,,,,,,,,,Michell,
Faklandia Brewing,unknown,,,,,,St Francis,,,,Michell,
FM - Village at Mercy Creek,unknown,,,,,,,,,,Michell,
FM - Village at Mercy Creek,unknown,,,,,,NORMAL,,,,Michell,
FORT ATKINSON FAMILY RESTAURANT,unknown,,,,,,,,,,Michell,
GAME ON BAR & GRILL,unknown,,,,,,,,,,Michell,
GEJA'S CAFE,unknown,,,,,,Peptone,,,,Michell,
GOBLIN AND THE GROCER,unknown,,,,,,,,,,Michell,
GOBLIN AND THE GROCER,unknown,,,,,,,,,,Michell,
GOBLIN AND THE GROCER,unknown,,,,,,BEVERLY SHORES,,,,Michell,
Golf VX,unknown,,,,,,,,,,Michell,
Golf VX,unknown,,,,,,Arlington Heights,,,,Michell,
HAIRY COW BREWING COMPANY,unknown,,,,,,Arlington Heights,,,,Michell,
Hampshire Township Park District,unknown,,,,,,,,,,Michell,
HEARTLAND HUMAN CARE-SRV GILES CCR,unknown,,,,,,Hampshire,,,,Michell,
HSL Eau Claire,unknown,,,,,,CHICAGO,,,,Michell,
HSL Muskego,unknown,,,,,,,,,,Michell,
HSL West Allis Assisted,unknown,,,,,,,,,,Michell,
Independence Village of Ames,unknown,,,,,,,,,,Michell,
Independence Village of Avon,unknown,,,,,,,,,,Michell,
Independence Village of Waukee,unknown,,,,,,,,,,Michell,
IVY TECH-E CHICAGO,unknown,,,,,,,,,,Michell,
IVY TECH-E CHICAGO,unknown,,,,,,EAST CHICAGO,,,,Michell,
IVY TECH-E CHICAGO,unknown,,,,,,EAST CHICAGO,,,,Michell,
IVY TECH-E CHICAGO,unknown,,,,,,,,,,Michell,
Jelka Leedle,unknown,,,,,,,,,,Michell,
Jelka Leedle,unknown,,,,,,,,,,Michell,
JULIE WENDORF,unknown,,,,,,Lake Geneva,,,,Michell,
Kelly,unknown,,,,,,Elkhorn,,,,Michell,
Kiddie Academy Of Oak Park,unknown,,,,,,,,,,Michell,
Kiddie Academy Of Oak Park,unknown,,,,,,,,,,Michell,
Kimberly Woods,unknown,,,,,,,,,,Michell,
King-Bruwaert House,unknown,,,,,,,,,,Michell,
KIRBY MEDICAL CENTER,unknown,,,,,,,,,,Michell,
KIRK'S BBQ,unknown,,,,,,Monticello,,,,Michell,
KNIGHTS OF COLUMBUS #1282,unknown,,,,,,South holland,,,,Michell,
KNIGHTS OF COLUMBUS #1282,unknown,,,,,,Dwight,,,,Michell,
L G YOUTH CAMP-GATE 2,unknown,,,,,,,,,,Michell,
LA RABIDA CHILDRENS HOSPITAL,unknown,,,,,,,,,,Michell,
Lemuel Marcial,unknown,,,,,,,,,,Michell,
Louies Waffle House,unknown,,,,,,,,,,Michell,
Ludington Pub,unknown,,,,,,Joliet,,,,Michell,
Lutherdale,unknown,,,,,,Ludington,,,,Michell,
Lutherdale,unknown,,,,,,Elkhorn,,,,Michell,
Lutherdale,unknown,,,,,,Elkhorn,,,,Michell,
MACS,unknown,,,,,,Elkhorn,,,,Michell,
MACS,unknown,,,,,,,,,,Michell,
Maija's Families Foods,unknown,,,,,,Ashwaubenon,,,,Michell,
Maple Tree Inn,unknown,,,,,,,,,,Michell,
Maple Tree Inn,unknown,,,,,,Homewood,,,,Michell,
MARK III RESTAURANT (THE),unknown,,,,,,Homewood,,,,Michell,
Marrufo's Tacos,unknown,,,,,,,,,,Michell,
Marrufo's Tacos,unknown,,,,,,,,,,Michell,
MARY'S PLACE,unknown,,,,,,,,,,Michell,
MERRILLVILLE REGIONAL MENTAL HEALTH,unknown,,,,,,South Beloit,,,,Michell,
MERRILLVILLE REGIONAL MENTAL HEALTH,unknown,,,,,,,,,,Michell,
MERRILLVILLE REGIONAL MENTAL HEALTH,unknown,,,,,,MERRILLVILLE,,,,Michell,
MERRILLVILLE REGIONAL MENTAL HEALTH,unknown,,,,,,MERRILLVILLE,,,,Michell,
MILWAUKEE BRAT HOUSE,unknown,,,,,,,,,,Michell,
Moxie Coffee Café Catering,unknown,,,,,,,,,,Michell,
NIIPC- PRAIRIE KNOLLS MIDDLE SCHOOL,unknown,,,,,,Plymouth,,,,Michell,
NIIPC- PRAIRIE KNOLLS MIDDLE SCHOOL,unknown,,,,,,,,,,Michell,
NIIPC-JOSEPH E HILL ADMIN CENTER,unknown,,,,,,,,,,Michell,
NIVRAM BALMORAL NURSING,unknown,,,,,,CHICAGO,,,,Michell,
NIVRAM BALMORAL NURSING,unknown,,,,,,,,,,Michell,
North Island Catering,unknown,,,,,,EVANSTON,,,,Michell,
Notre Dame-110 South Dining Hall,unknown,,,,,,,,,,Michell,
Notre Dame-110 South Dining Hall,unknown,,,,,,,,,,Michell,
OAKCREST DEKALB AREA RET CTR,unknown,,,,,,,,,,Michell,
Organic Life - Peoria High School,unknown,,,,,,,,,,Michell,
Palace Ent - Adventureland,unknown,,,,,,,,,,Michell,
PARAMOUNT THEATRE,unknown,,,,,,,,,,Michell,
PARAMOUNT THEATRE,unknown,,,,,,,,,,Michell,
Paulies,unknown,,,,,,,,,,Michell,
PEACE MEAL CENTRAL OFFICE,unknown,,,,,,,,,,Michell,
Port of Peri Peri Villa Park IL,unknown,,,,,,,,,,Michell,
POST 18 AMERICAN LEGION,unknown,,,,,,,,,,Michell,
Quality Inn Bradley 367910E,unknown,,,,,,,,,,Michell,
Queen of Peace Retirement,unknown,,,,,,,,,,Michell,
Quindts Towne Lounge,unknown,,,,,,,,,,Michell,
RADER FAMILY FARM,unknown,,,,,,,,,,Michell,
RIDGE COUNTRY CLUB,unknown,,,,,,,,,,Michell,
RIDGE COUNTRY CLUB,unknown,,,,,,,,,,Michell,
Rockford Rivets,unknown,,,,,,,,,,Michell,
Rockford Rivets,unknown,,,,,,,,,,Michell,
Rupley Elementary School,unknown,,,,,,,,,,Michell,
RUSH U MED-GEN KITCHEN PO589563,unknown,,,,,,Elk Grove Village,,,,Michell,
Sassy Mac Boys,unknown,,,,,,,,,,Michell,
Sassy Mac Boys,unknown,,,,,,Durand,,,,Michell,
Sassy Mac Boys,unknown,,,,,,,,,,Michell,
SAUSAGE KITCHEN,unknown,,,,,,,,,,Michell,
Science Of Spirituality,unknown,,,,,,,,,,Michell,
Something Special by Sherri,unknown,,,,,,Lisle,,,,Michell,
SPRING BROOK RESORT 69445E,unknown,,,,,,,,,,Michell,
SQUARE ROOTS,unknown,,,,,,WISCONSIN DELLS,,,,Michell,
State Park Little League,unknown,,,,,,,,,,Michell,
Storypoint Of Bolingbrook,unknown,,,,,,,,,,Michell,
Stussy's Diner,unknown,,,,,,,,,,Michell,
Sure Stay Plus Hotel,unknown,,,,,,,,,Contact: gm.surestaylombard@gmail.com | Email: gm.surestaylombard@gmail.com,Michell,
Taco Depot Crown Point,unknown,,,,,,,,,,Michell,
Tandoor Char House,unknown,,,,,,,,,,Michell,
Tandoor Char House,unknown,,,,,,Chicago,,,,Michell,
Taquero Mucho,unknown,,,,,,Chicago,,,,Michell,
The Cellar Door,unknown,,,,,,Chicago,,,,Michell,
The Ice Cream Shop,unknown,,,,,,Michigan City,,,,Michell,
The Matrix Room,unknown,,,,,,,,,,Michell,
The Matrix Room,unknown,,,,,,,,,,Michell,
The Pointe at Morris,unknown,,,,,,Naperville,,,,Michell,
The Pointe at Morris,unknown,,,,,,,,,,Michell,
The Shores of Fairmont,unknown,,,,,,,,,,Michell,
The Shores of Fairmont,unknown,,,,,,Lake villa,,,,Michell,
The Village Of South Holland,unknown,,,,,,,,,,Michell,
the woods of Caledonia,unknown,,,,,,,,,,Michell,
THS-Gottlieb Memorial Dietary,unknown,,,,,,Racine,,,,Michell,
THS-GOTTLIEB MEMORIAL DIETARY-H0182,unknown,,,,,,,,,,Michell,
THS-GOTTLIEB MEMORIAL DIETARY-H0182,unknown,,,,,,,,,,Michell,
THS-MERCY MEDICAL CTR-DUBUQUE-H0050,unknown,,,,,,,,,,Michell,
Timber-Lee Ministries,unknown,,,,,,,,,,Michell,
Timber-Lee Ministries,unknown,,,,,,,,,,Michell,
Tinys Coffee Bar,unknown,,,,,,East Troy,,,,Michell,
U OF I- HOUSING FOOD STORES,unknown,,,,,,,,,,Michell,
UIC Catering & Conferences 49852003,unknown,,,,,,,,,,Michell,
VILLAGE GRNS OF WOODRIDGE GOLFCRSE,unknown,,,,,,,,,,Michell,
Wanaki Golf Course,unknown,,,,,,,,,,Michell,
Washington Grade School District 52,unknown,,,,,,,,,,Michell,
West Carroll Middle School,unknown,,,,,,,,,,Michell,
WEST HARVEY SCHOOL DIST 147,unknown,,,,,,,,,,Michell,
White Deer Golf Course,unknown,,,,,,,,,,Michell,
WurstBar Brady St,unknown,,,,,,Vernon Hills,,,,Michell,
WUSKOWHAN PLAYERS CLUB,unknown,,,,,,,,,,Michell,
Brett Anthony Foods,customer,A,Caterer,,,,,,,,Gary,
pavlou,customer,,Chain/Group Member,,,,,,,,gary,
Frank's Pizza & Pub,customer,,Pizza,,,,,,,,Dale,
Mr. Scribs,customer,A,Pizza,,,,,MI,,lead from Kaufholds John Schneider ler Anthony oversite. Leftnkits,Gary,
Avi Foodsystems,customer,,Management company,,,,Warren,OH,,Mccrum and Sysco connect with Mike's help.,Gary,
TAR & Feather Concessions,unknown,,,,,,,,,,,
